{"type":"FeatureCollection","features":[{"type":"Feature","id":1,"geometry":{"type":"Polygon","coordinates":[[[-82.327114131407839,28.834192177500935],[-82.327209402987009,28.834317221352844],[-82.327308549311681,28.834450157202756],[-82.327391857931602,28.834587000484966],[-82.327455373691606,28.834729803642833],[-82.327475219267043,28.834823100537907],[-82.327507068786247,28.834969886593935],[-82.327526865561879,28.83513658685467],[-82.327534812198536,28.835257670170027],[-82.327548651875603,28.83542223920541],[-82.327548659813971,28.835592981086943],[-82.327518981962143,28.835729794451975],[-82.327459422530296,28.835906336556356],[-82.327520911067481,28.835934200195521],[-82.327524609891825,28.835937665984751],[-82.327584355293524,28.835993631540902],[-82.327639972458272,28.836059182334459],[-82.327747161187943,28.836142471622285],[-82.327790806700676,28.836152437992755],[-82.327816503257537,28.836146413138305],[-82.327866100728698,28.836134588842786],[-82.327983210878187,28.836096889294076],[-82.328126040911897,28.836023401309337],[-82.328163937952411,28.835986734283125],[-82.328183534912625,28.835967847430393],[-82.328179587443245,28.835918451435074],[-82.328175610108246,28.835868680153887],[-82.328144007646372,28.835836971597132],[-82.328094353209977,28.835803135993661],[-82.328024858100164,28.83577744407566],[-82.327925623356208,28.835721925699762],[-82.327899862966987,28.835672247054756],[-82.327891953547322,28.835572990390208],[-82.327929621750044,28.835473812431086],[-82.328008989011579,28.835303182571359],[-82.3280704534574,28.835160392545351],[-82.328137937576926,28.835043298974391],[-82.328217363808633,28.834878610507371],[-82.328217323378226,28.8348448229643],[-82.328223210997621,28.834696109090189],[-82.328209348136056,28.834658360676798],[-82.328189465978141,28.834581037452207],[-82.328157767571554,28.83452155984261],[-82.328114183793531,28.834477817521176],[-82.328058569935351,28.834450067082688],[-82.32794552812129,28.834390498451501],[-82.327901855718181,28.834340993264899],[-82.327870111399903,28.834263521965756],[-82.327862123217102,28.834186167977268],[-82.327812521042404,28.834142569209199],[-82.327756924142889,28.834126690205661],[-82.327719391410142,28.834126727240996],[-82.327649844470983,28.834150515746156],[-82.327536740352684,28.834112761903],[-82.327493106869667,28.834085082298582],[-82.327387858250319,28.834047328209579],[-82.327000991249633,28.833983858204704],[-82.327114131407839,28.834192177500935]]]},"properties":{"OBJECTID":1,"OBJECTID_1":null,"NWICODE":"PAB3H","NWISYSDESC":"PALUSTRINE","NWIDESC":"PALUSTRINE-AQUATIC BED-ROOTED VASCULAR-PERMANENTLY FLOODED","DATESTAMP":1569283200000,"NWISYS":"P","ShapeSTAre":144461.97344514186,"ShapeSTLen":2085.7982758615049,"Feature_ID":25039,"Shape_Length":2085.7982758590347,"Shape_Area":144461.97344496573}},{"type":"Feature","id":2,"geometry":{"type":"Polygon","coordinates":[[[-82.336983339087226,28.822646877106131],[-82.336895984333779,28.82266273304435],[-82.336808710846284,28.822680608080283],[-82.337017069608976,28.822942460837794],[-82.337112358785575,28.82302577440252],[-82.337217511256839,28.823063417486122],[-82.337318633758827,28.823111136666149],[-82.337455553428597,28.823142889315417],[-82.3376042847961,28.823103198509052],[-82.337491248514709,28.822894807153496],[-82.337421819574715,28.822807588090019],[-82.337308686439712,28.822720257169493],[-82.337233321844366,28.822682497310595],[-82.337151958096626,28.822656753043869],[-82.337076536785091,28.822638890852183],[-82.336983339087226,28.822646877106131]]]},"properties":{"OBJECTID":2,"OBJECTID_1":null,"NWICODE":"PEM1F","NWISYSDESC":"PALUSTRINE","NWIDESC":"PALUSTRINE-EMERGENT-PERSISTENT-SEMIPERMANENTLY FLOODED","DATESTAMP":1569283200000,"NWISYS":"P","ShapeSTAre":24871.392653247138,"ShapeSTLen":666.01172315699853,"Feature_ID":25186,"Shape_Length":666.01172315694885,"Shape_Area":24871.39265313033}},{"type":"Feature","id":3,"geometry":{"type":"Polygon","coordinates":[[[-82.331393909095183,28.826464175721657],[-82.331376090735759,28.82654763297753],[-82.331407845916175,28.826666651003258],[-82.331497166301347,28.826759888646002],[-82.331622128016733,28.826803448916007],[-82.331689539480479,28.826813442271689],[-82.331727270486084,28.826813429826153],[-82.331770930793667,28.826781669662996],[-82.331794825374942,28.826698350810823],[-82.33178874015627,28.826642787455732],[-82.331751050002879,28.826571312075099],[-82.331620077116369,28.826517761045114],[-82.331538791991463,28.82646819149538],[-82.331487140411269,28.826436475177626],[-82.331443520928246,28.826436464122001],[-82.331393909095183,28.826464175721657]]]},"properties":{"OBJECTID":3,"OBJECTID_1":null,"NWICODE":"PEM1F","NWISYSDESC":"PALUSTRINE","NWIDESC":"PALUSTRINE-EMERGENT-PERSISTENT-SEMIPERMANENTLY FLOODED","DATESTAMP":1569283200000,"NWISYS":"P","ShapeSTAre":12370.597742352249,"ShapeSTLen":425.8574114825575,"Feature_ID":25189,"Shape_Length":425.85741148281329,"Shape_Area":12370.597742346044}},{"type":"Feature","id":4,"geometry":{"type":"Polygon","coordinates":[[[-82.334467492286805,28.841727500291999],[-82.334269131576207,28.841763216937732],[-82.334138188414329,28.841785002601181],[-82.333987333017035,28.841786985896508],[-82.333826632391435,28.841765158180962],[-82.333701600241611,28.841743325955981],[-82.333556717463338,28.841733472936987],[-82.333475412094984,28.841739418913782],[-82.333465626531137,28.841742002934968],[-82.334140919299898,28.842020049982178],[-82.334201729968882,28.84204095003858],[-82.334245229356497,28.841983397214719],[-82.334467492286805,28.841727500291999]]]},"properties":{"OBJECTID":4,"OBJECTID_1":null,"NWICODE":"PEM1F","NWISYSDESC":"PALUSTRINE","NWIDESC":"PALUSTRINE-EMERGENT-PERSISTENT-SEMIPERMANENTLY FLOODED","DATESTAMP":1569283200000,"NWISYS":"P","ShapeSTAre":130724.35436891587,"ShapeSTLen":2049.0475357887062,"Feature_ID":25235,"Shape_Length":726.40470351137651,"Shape_Area":15234.301664641318}},{"type":"Feature","id":5,"geometry":{"type":"Polygon","coordinates":[[[-82.337151958096626,28.822656753043869],[-82.337233321844366,28.822682497310595],[-82.337308686439712,28.822720257169493],[-82.337421819574715,28.822807588090019],[-82.337491248514709,28.822894807153496],[-82.3376042847961,28.823103198509052],[-82.337661922999345,28.823109107862315],[-82.33772340347474,28.82309724661976],[-82.337747289263504,28.823069439183197],[-82.337761126462794,28.823031672896999],[-82.337773021017838,28.822976127055774],[-82.337765111254285,28.822926632007633],[-82.337759156462965,28.822882864404356],[-82.337739332489846,28.82282344585478],[-82.33772743800067,28.82278375799492],[-82.337713512158416,28.822740067181744],[-82.337675838440646,28.822624951639149],[-82.33761832432738,28.822519897689268],[-82.337542880072078,28.82241072623102],[-82.337479354504993,28.822295681600366],[-82.337447628024321,28.822214287367849],[-82.33740192532963,28.822065547591194],[-82.337390090213503,28.821950447656629],[-82.337407866746389,28.821910719867621],[-82.337475372620588,28.821894881656757],[-82.337550813248171,28.821882980170415],[-82.337675814118711,28.821865090567524],[-82.337824624611812,28.821841296121903],[-82.337917841203435,28.821803544929661],[-82.337943725351337,28.82175407985364],[-82.337973394919572,28.821658805225251],[-82.338009110886958,28.821543668358434],[-82.338058731689813,28.821406752918868],[-82.338132145002177,28.821196545920191],[-82.338167823886408,28.821057664957131],[-82.338167842158441,28.820932666871876],[-82.338128117152365,28.82087106863267],[-82.338060755575327,28.820839353556472],[-82.337959479044756,28.820851238818463],[-82.337860334730451,28.820894896927982],[-82.337743212768714,28.820950500450749],[-82.337536906974947,28.821017982926783],[-82.337443627082891,28.821079465525205],[-82.337390064292819,28.821178623748651],[-82.33736630276573,28.82131163319999],[-82.337342390231811,28.821454393323961],[-82.337261170608386,28.821599320536468],[-82.337150030107196,28.821698511554917],[-82.337007125390969,28.821815553594259],[-82.33682857805681,28.821958352299465],[-82.336717356638658,28.82208136399835],[-82.33668764661391,28.822208407687111],[-82.336693628602546,28.822361107773609],[-82.336733270052449,28.822515920984099],[-82.336808710846284,28.822680608080283],[-82.336895984333779,28.82266273304435],[-82.336983339087226,28.822646877106131],[-82.337076536785091,28.822638890852183],[-82.337151958096626,28.822656753043869]]]},"properties":{"OBJECTID":5,"OBJECTID_1":null,"NWICODE":"PFO1/4C","NWISYSDESC":"PALUSTRINE","NWIDESC":"PALUSTRINE-FORESTED-BROAD-LEAVED DECIDUOUS/NEEDLE-LEAVED EVERGREEN-SEASONALLY FLOODED","DATESTAMP":1569283200000,"NWISYS":"P","ShapeSTAre":166425.08940022311,"ShapeSTLen":2275.7473721941406,"Feature_ID":25322,"Shape_Length":2275.7473721898955,"Shape_Area":166425.08940036522}},{"type":"Feature","id":6,"geometry":{"type":"Polygon","coordinates":[[[-82.325172856667223,28.833712925265004],[-82.325320465230021,28.834071608565395],[-82.32575328033802,28.834940633618402],[-82.326249979423523,28.835782967731475],[-82.326808436306678,28.836595004336555],[-82.326837146398745,28.836631171271062],[-82.327076469445572,28.836537380670027],[-82.327169646019726,28.836481737100115],[-82.327245147733592,28.836436157316289],[-82.327280839716209,28.836392514768725],[-82.327312491762143,28.83633694274069],[-82.327312515548343,28.83628134097129],[-82.327292710991927,28.836221832512326],[-82.327260973901176,28.836166366439183],[-82.32722319848834,28.836106749973283],[-82.327215314695835,28.836041371077606],[-82.327247066604485,28.835973850524091],[-82.327320494786974,28.835930196729571],[-82.327401835335806,28.835906364434297],[-82.327405255851787,28.835906363351835],[-82.327459422530296,28.835906336556356],[-82.327518981962143,28.835729794451975],[-82.327548659813971,28.835592981086943],[-82.327548651875603,28.83542223920541],[-82.327534812198536,28.835257670170027],[-82.327526865561879,28.83513658685467],[-82.327507068786247,28.834969886593935],[-82.327475219267043,28.834823100537907],[-82.327455373691606,28.834729803642833],[-82.327391857931602,28.834587000484966],[-82.327308549311681,28.834450157202756],[-82.327209402987009,28.834317221352844],[-82.327114131407839,28.834192177500935],[-82.327000991249633,28.833983858204704],[-82.326768841319279,28.833886586629383],[-82.32653673243199,28.83384894236324],[-82.326237127940061,28.833823205300057],[-82.325943508419897,28.83378745829781],[-82.32574304976545,28.833733957617959],[-82.325606174145861,28.833722012178939],[-82.325431503973164,28.83372997325311],[-82.325172856667223,28.833712925265004]]]},"properties":{"OBJECTID":6,"OBJECTID_1":null,"NWICODE":"PUBH","NWISYSDESC":"PALUSTRINE","NWIDESC":"PALUSTRINE-UNCONSOLIDATED BOTTOM-PERMANENTLY FLOODED","DATESTAMP":1569283200000,"NWISYS":"P","ShapeSTAre":801887.68836681813,"ShapeSTLen":3507.4094267574897,"Feature_ID":25536,"Shape_Length":2938.0392493735885,"Shape_Area":454285.22260381735}},{"type":"Feature","id":7,"geometry":{"type":"Polygon","coordinates":[[[-82.338040620560804,28.791874207178452],[-82.33805845591165,28.79222138159685],[-82.338463221974564,28.792213532731282],[-82.33847916366409,28.791854425506976],[-82.338040620560804,28.791874207178452]]]},"properties":{"OBJECTID":7,"OBJECTID_1":null,"NWICODE":"PUBHx","NWISYSDESC":"PALUSTRINE","NWIDESC":"PALUSTRINE-UNCONSOLIDATED BOTTOM-PERMANENTLY FLOODED-EXCAVATED","DATESTAMP":1569283200000,"NWISYS":"P","ShapeSTAre":17343.481945551794,"ShapeSTLen":527.36800181289186,"Feature_ID":25562,"Shape_Length":527.36800180777993,"Shape_Area":17343.481945204094}},{"type":"Feature","id":8,"geometry":{"type":"Polygon","coordinates":[[[-82.342306626686593,28.801711061593316],[-82.342818547105907,28.801712966818666],[-82.342832439365083,28.801294346001427],[-82.34237808807967,28.801248850571223],[-82.342320658399004,28.801232924302091],[-82.342259060540655,28.801232991136303],[-82.342306626686593,28.801711061593316]]]},"properties":{"OBJECTID":8,"OBJECTID_1":null,"NWICODE":"PUBHx","NWISYSDESC":"PALUSTRINE","NWIDESC":"PALUSTRINE-UNCONSOLIDATED BOTTOM-PERMANENTLY FLOODED-EXCAVATED","DATESTAMP":1569283200000,"NWISYS":"P","ShapeSTAre":28223.751749288105,"ShapeSTLen":676.19748563150858,"Feature_ID":25564,"Shape_Length":676.1974856403383,"Shape_Area":28223.751749612366}},{"type":"Feature","id":9,"geometry":{"type":"Polygon","coordinates":[[[-82.339955501132096,28.803740755261543],[-82.340360221406499,28.803788404166372],[-82.340382081285284,28.803369799675664],[-82.339957454657707,28.80334590184075],[-82.339955501132096,28.803740755261543]]]},"properties":{"OBJECTID":9,"OBJECTID_1":null,"NWICODE":"PUBHx","NWISYSDESC":"PALUSTRINE","NWIDESC":"PALUSTRINE-UNCONSOLIDATED BOTTOM-PERMANENTLY FLOODED-EXCAVATED","DATESTAMP":1569283200000,"NWISYS":"P","ShapeSTAre":19690.341735400951,"ShapeSTLen":562.98507832592452,"Feature_ID":25565,"Shape_Length":562.98507833436599,"Shape_Area":19690.341736008733}},{"type":"Feature","id":10,"geometry":{"type":"Polygon","coordinates":[[[-82.353807058459765,28.814458414608751],[-82.353745544470584,28.814559577099267],[-82.353838877954047,28.814640983795545],[-82.353981675306571,28.814688533472967],[-82.354088894614975,28.814710355090341],[-82.354193990060836,28.814738205980102],[-82.354269419604023,28.814742088241516],[-82.354318993237982,28.814704410520982],[-82.354350757337698,28.814615152384462],[-82.354342827934886,28.814555612083254],[-82.354293177178576,28.814505991154835],[-82.354174103305894,28.814450515071112],[-82.354055091613361,28.814430657188463],[-82.353918101616628,28.814424663331398],[-82.353807058459765,28.814458414608751]]]},"properties":{"OBJECTID":10,"OBJECTID_1":null,"NWICODE":"PUBHx","NWISYSDESC":"PALUSTRINE","NWIDESC":"PALUSTRINE-UNCONSOLIDATED BOTTOM-PERMANENTLY FLOODED-EXCAVATED","DATESTAMP":1569283200000,"NWISYS":"P","ShapeSTAre":15766.07768519996,"ShapeSTLen":491.55894942152923,"Feature_ID":25570,"Shape_Length":491.55894942222056,"Shape_Area":15766.077685105804}},{"type":"Feature","id":11,"geometry":{"type":"Polygon","coordinates":[[[-82.3380805376881,28.817250199337973],[-82.337931738297726,28.817299834225061],[-82.337731306444624,28.817385142658331],[-82.337602308950324,28.81742872640087],[-82.337526917622839,28.817446660592807],[-82.337483283452016,28.817462537485572],[-82.337439630463194,28.817508178744706],[-82.337427717858503,28.817579610624733],[-82.337453528514047,28.817666823342542],[-82.337528890585105,28.817744303497864],[-82.337630137645206,28.817791857077669],[-82.337685702757383,28.817825533745381],[-82.337735327443156,28.817863290138671],[-82.337755113492747,28.817912843933545],[-82.337755159804161,28.818000231142168],[-82.337707446291319,28.818077585127678],[-82.337626201420903,28.818188635641842],[-82.337576621112731,28.818266024026013],[-82.337546832847892,28.818349413749107],[-82.337540845322138,28.818430734509239],[-82.337548799684185,28.818486262304415],[-82.337554726844502,28.818535869733175],[-82.337925808631979,28.818912854324161],[-82.33810235977181,28.819115216865846],[-82.338163853718015,28.819170743119535],[-82.338271058937394,28.819220426950263],[-82.33840196093243,28.81925606736209],[-82.338477400938999,28.819283883915205],[-82.338753215317951,28.819331479638564],[-82.338901983282582,28.81935333261875],[-82.338989311539422,28.819369156276291],[-82.339114251335701,28.819412798169775],[-82.339165804159364,28.819456461075756],[-82.339203574858232,28.819559628594682],[-82.339229396586376,28.819643007015923],[-82.339247230653598,28.819692493294966],[-82.339261156715253,28.81973618396762],[-82.339267084570182,28.819813548899997],[-82.339231288301193,28.819912788615909],[-82.339181791446876,28.820033833558046],[-82.339151961378434,28.820164788696456],[-82.339165848693639,28.820281886455358],[-82.339173762288851,28.820412736809384],[-82.339199563757504,28.820539757035359],[-82.339257224689987,28.820692491345632],[-82.339306768668493,28.820769863012377],[-82.33939414318391,28.820819475776613],[-82.33948145868024,28.820835387562617],[-82.339588535988611,28.820795664007139],[-82.339749273918514,28.820712307900838],[-82.339874336312278,28.820656804457162],[-82.339967449627451,28.820605160234432],[-82.340003188141694,28.820567454033473],[-82.340035032591686,28.820523863781943],[-82.340046943700301,28.820396917435129],[-82.340026987289775,28.820275848684854],[-82.339999194676437,28.820138895652455],[-82.339961605826645,28.819968366371238],[-82.339915970949747,28.819758003451486],[-82.339878157287274,28.819633007696268],[-82.339814668086561,28.819500073136425],[-82.33974525362396,28.819385007360044],[-82.339679752520269,28.819232183782741],[-82.339648007444339,28.819083402363646],[-82.339590508919784,28.818853351092315],[-82.339582564946539,28.818688620172924],[-82.339562768803816,28.818422758078512],[-82.339522963384084,28.818192594563968],[-82.339521053338757,28.818033930881178],[-82.339526976114485,28.817934706668865],[-82.339519080111984,28.817857363821787],[-82.339481327671365,28.817779946292212],[-82.339362397618729,28.81769269745601],[-82.339231366949562,28.81762316680938],[-82.339074548465206,28.817585491729613],[-82.338868269842393,28.817514099713847],[-82.338711490238964,28.817444653957107],[-82.33864800663703,28.817406952546349],[-82.338479354744067,28.817335531383911],[-82.338342485723771,28.817297850531133],[-82.338249186300615,28.817254143940271],[-82.33818568741242,28.817244289282929],[-82.3380805376881,28.817250199337973]]]},"properties":{"OBJECTID":11,"OBJECTID_1":null,"NWICODE":"PUBHx","NWISYSDESC":"PALUSTRINE","NWIDESC":"PALUSTRINE-UNCONSOLIDATED BOTTOM-PERMANENTLY FLOODED-EXCAVATED","DATESTAMP":1569283200000,"NWISYS":"P","ShapeSTAre":523895.11220867105,"ShapeSTLen":3602.2431769556974,"Feature_ID":25571,"Shape_Length":3602.2431769612494,"Shape_Area":523895.11220917653}},{"type":"Feature","id":12,"geometry":{"type":"Polygon","coordinates":[[[-82.341836434635525,28.794618080960273],[-82.341836360649111,28.794639987375721],[-82.34184242272319,28.794673634425642],[-82.341848350457695,28.794723245444125],[-82.34190185045972,28.795070410047089],[-82.342387992016185,28.7950566064196],[-82.342342350123317,28.794572473435515],[-82.341836434635525,28.794618080960273]]]},"properties":{"OBJECTID":12,"OBJECTID_1":null,"NWICODE":"PUSCx","NWISYSDESC":"PALUSTRINE","NWIDESC":"PALUSTRINE-UNCONSOLIDATED SHORE-SEASONALLY FLOODED-EXCAVATED","DATESTAMP":1569283200000,"NWISYS":"P","ShapeSTAre":27337.466355510009,"ShapeSTLen":661.19872106682442,"Feature_ID":25619,"Shape_Length":661.1987210641588,"Shape_Area":27337.466355103792}}]}