{"type":"FeatureCollection","features":[{"type":"Feature","id":1,"geometry":{"type":"Polygon","coordinates":[[[-82.23526786758066,28.528218165839853],[-82.235241988124812,28.528257770488889],[-82.23523004127938,28.528317273041246],[-82.235222220992966,28.528388641538537],[-82.235222102751223,28.528472065599235],[-82.235244080385442,28.52858713643425],[-82.235311450324247,28.528730014792792],[-82.235323342257956,28.528747912110791],[-82.23538492380338,28.528775621185179],[-82.2355614088832,28.528749839268652],[-82.235605077463902,28.528727981763186],[-82.235648677823335,28.528700266320641],[-82.235680471503272,28.528646622535764],[-82.23570042000037,28.528591080003185],[-82.235726217861981,28.528454225785218],[-82.235740082957818,28.528398718165448],[-82.235742084366194,28.528299453731339],[-82.235704357596106,28.528255730968393],[-82.235622996505256,28.528228022056876],[-82.235543674202702,28.52821611237794],[-82.23545028579403,28.528198269733831],[-82.235355168028832,28.528202228939673],[-82.235293567599385,28.528202208422968],[-82.23526786758066,28.528218165839853]]]},"properties":{"OBJECTID":1,"OBJECTID_1":null,"NWICODE":"PAB3H","NWISYSDESC":"PALUSTRINE","NWIDESC":"PALUSTRINE-AQUATIC BED-ROOTED VASCULAR-PERMANENTLY FLOODED","DATESTAMP":1569283200000,"NWISYS":"P","ShapeSTAre":28854.146218156369,"ShapeSTLen":629.60578303313503,"Feature_ID":37595,"Shape_Length":629.60578303278896,"Shape_Area":28854.146217955673}},{"type":"Feature","id":2,"geometry":{"type":"Polygon","coordinates":[[[-82.224322953749677,28.526345201892333],[-82.224308324278212,28.526393700206391],[-82.224377865093302,28.526606307681803],[-82.224481738085686,28.526611062895245],[-82.224656249216522,28.526634851767973],[-82.224693947700843,28.526634890481148],[-82.224737606969768,28.526636889149156],[-82.224769386213453,28.526630951454802],[-82.224793240393666,28.526603059196354],[-82.224807039285267,28.526543613111595],[-82.224801133255937,28.526454289492634],[-82.224820964937649,28.526388862582539],[-82.224828962586699,28.526335246241839],[-82.224840786691217,28.526313471954325],[-82.224854644152103,28.526295617710964],[-82.224904297031259,28.526273716731001],[-82.224953924089149,28.526275756883724],[-82.225003587564217,28.526275699900296],[-82.225041285920199,28.526275738517807],[-82.225096700860391,28.526275786570636],[-82.225110756228744,28.526271757755602],[-82.22515435835399,28.526244046563768],[-82.225166237299575,28.526206286152572],[-82.225162190775691,28.526150744291133],[-82.225156283783491,28.526095235290192],[-82.225150329850422,28.526057541431481],[-82.225132471896259,28.526002038700291],[-82.225108724587145,28.525869004215714],[-82.225110688570581,28.525809488373035],[-82.225116634159932,28.525765841850923],[-82.225104769957966,28.525732135334255],[-82.225080854668022,28.525698421713422],[-82.22500543087547,28.525664708590874],[-82.224943918683394,28.525630969684237],[-82.224900316471349,28.525587304141762],[-82.224876531682568,28.525515862174174],[-82.224858674747281,28.525426543888997],[-82.224854642517158,28.525333350592561],[-82.224848802315449,28.525283699507],[-82.22484870464595,28.525224189781774],[-82.224844807194359,28.525162726444062],[-82.224813064814555,28.525129004972801],[-82.224739552384918,28.52510120613675],[-82.224602640515798,28.525077441822887],[-82.224440062431626,28.525093217379158],[-82.22437644710304,28.525109196580804],[-82.22433878464031,28.525140876172941],[-82.224324949232127,28.525202418438738],[-82.22433676942336,28.5253115181273],[-82.224378474181989,28.525466254363142],[-82.224394276684137,28.52563692011806],[-82.224410314719194,28.525956401691467],[-82.224388412162384,28.526083250314976],[-82.224368613799101,28.526214210166351],[-82.224322953749677,28.526345201892333]]]},"properties":{"OBJECTID":2,"OBJECTID_1":null,"NWICODE":"PAB3Hx","NWISYSDESC":"PALUSTRINE","NWIDESC":"PALUSTRINE-AQUATIC BED-ROOTED VASCULAR-PERMANENTLY FLOODED-EXCAVATED","DATESTAMP":1569283200000,"NWISYS":"P","ShapeSTAre":106941.29340596106,"ShapeSTLen":1535.4113209728389,"Feature_ID":37715,"Shape_Length":1506.8530910262582,"Shape_Area":105464.03880577117}},{"type":"Feature","id":3,"geometry":{"type":"Polygon","coordinates":[[[-82.234269663822047,28.518214514648548],[-82.234237903796171,28.518220365194459],[-82.234194299229458,28.518246252058429],[-82.234162503503583,28.518279881467027],[-82.234142663251333,28.518333519710019],[-82.23414259768407,28.518400959593219],[-82.23414870749275,28.518444612836443],[-82.234148571654913,28.518472379255613],[-82.234178355490329,28.518553735155713],[-82.234194298017698,28.518674791196712],[-82.23420617885391,28.518730341886556],[-82.234224093286571,28.518791791657847],[-82.23423592116454,28.518841395052551],[-82.234255749564639,28.518869276840501],[-82.234273658058555,28.518885029852612],[-82.234311317099994,28.518912843889918],[-82.234341072451016,28.518924829006377],[-82.234384816900004,28.518930672960305],[-82.234428392059925,28.518930647411612],[-82.234521640182763,28.518926722790777],[-82.234603050604804,28.518910847081631],[-82.234690327351032,28.518894999991815],[-82.23476574424636,28.518869208698426],[-82.234811311540568,28.518829502394539],[-82.234835169403922,28.518785888529393],[-82.234843007241153,28.518726310018085],[-82.234819197785015,28.518621142681091],[-82.234771575198536,28.518516092284614],[-82.234624869757212,28.518305728392178],[-82.23453150296524,28.518250232693564],[-82.234456121559219,28.518226310674915],[-82.234368893929528,28.518210541921707],[-82.234313303015099,28.518208464944603],[-82.234269663822047,28.518214514648548]]]},"properties":{"OBJECTID":3,"OBJECTID_1":null,"NWICODE":"PAB4H","NWISYSDESC":"PALUSTRINE","NWIDESC":"PALUSTRINE-AQUATIC BED-FLOATING VASCULAR-PERMANENTLY FLOODED","DATESTAMP":1569283200000,"NWISYS":"P","ShapeSTAre":45076.603491024143,"ShapeSTLen":790.14888205078898,"Feature_ID":37720,"Shape_Length":790.14888205444072,"Shape_Area":45076.603491426147}},{"type":"Feature","id":4,"geometry":{"type":"Polygon","coordinates":[[[-82.229624624552017,28.519158916771488],[-82.229497588791233,28.519196664624896],[-82.229392496680859,28.519283863751809],[-82.229315194401551,28.519359307915842],[-82.22926557654759,28.519414847324651],[-82.229126593112937,28.519583476374763],[-82.228950088990615,28.519730338881793],[-82.228779324477216,28.519893025013889],[-82.228487760594447,28.520170759715029],[-82.22843216022531,28.520226347678005],[-82.228386508949001,28.520264030725709],[-82.228386450709323,28.520319499124358],[-82.228410308259029,28.520357317073636],[-82.228509518593128,28.520381039037641],[-82.22869209325475,28.520327543779491],[-82.228793369532085,28.520277962438975],[-82.228886556643872,28.520224316935305],[-82.229031385034844,28.520164837262861],[-82.229188141346896,28.520107358577643],[-82.229299282943003,28.520085465944533],[-82.229374660650549,28.520063694963586],[-82.22942629642246,28.520037844810798],[-82.229487851187415,28.519960453751679],[-82.229539379070559,28.519851330451321],[-82.22960487951336,28.519698594641408],[-82.229706053847181,28.519567567662055],[-82.22980124479075,28.519458522927909],[-82.229870701713963,28.519337463575535],[-82.229840952213237,28.519204564484696],[-82.229799311155958,28.519160880008517],[-82.229723793676342,28.519139038217844],[-82.229624624552017,28.519158916771488]]]},"properties":{"OBJECTID":4,"OBJECTID_1":null,"NWICODE":"PEM1A","NWISYSDESC":"PALUSTRINE","NWIDESC":"PALUSTRINE-EMERGENT-PERSISTENT-TEMPORARY FLOODED","DATESTAMP":1569283200000,"NWISYS":"P","ShapeSTAre":80472.883592756363,"ShapeSTLen":1383.6834119310977,"Feature_ID":37753,"Shape_Length":1383.6834119279022,"Shape_Area":80472.883592916391}},{"type":"Feature","id":5,"geometry":{"type":"Polygon","coordinates":[[[-82.247319660038244,28.512349490652198],[-82.247264170555908,28.512371285918533],[-82.247226447982811,28.512399035025776],[-82.247212449019699,28.512409014310744],[-82.247143101321356,28.512496373281518],[-82.247240279347963,28.51267289727992],[-82.247271973394476,28.512700667164321],[-82.247321589331051,28.512740349725142],[-82.247371235495763,28.512752253385948],[-82.247414856544779,28.512746287945387],[-82.247452584449732,28.512730420914227],[-82.247522088088886,28.512670955832355],[-82.247565732246187,28.512589594495875],[-82.247567744189936,28.512450665112063],[-82.247543859205834,28.512401057748971],[-82.247514158895569,28.512367423535515],[-82.247482368980386,28.512351522483097],[-82.247389111976744,28.512333613720791],[-82.247319660038244,28.512349490652198]]]},"properties":{"OBJECTID":5,"OBJECTID_1":null,"NWICODE":"PEM1C","NWISYSDESC":"PALUSTRINE","NWIDESC":"PALUSTRINE-EMERGENT-PERSISTENT-SEASONALLY FLOODED","DATESTAMP":1569283200000,"NWISYS":"P","ShapeSTAre":15053.614909984264,"ShapeSTLen":446.01453026267228,"Feature_ID":37808,"Shape_Length":446.01453025853368,"Shape_Area":15053.614909682805}},{"type":"Feature","id":6,"geometry":{"type":"Polygon","coordinates":[[[-82.240174661122296,28.526952205205948],[-82.240081491216372,28.526956237362871],[-82.239992143211111,28.527043562939927],[-82.239966388620488,28.527103107445477],[-82.239942520726501,28.527136758451039],[-82.239922667055254,28.527168552549607],[-82.239902873889847,28.527208122069013],[-82.23989693194018,28.52723988798498],[-82.239884999978557,28.527273621670737],[-82.239877124244387,28.527301481127616],[-82.239876990933553,28.527329246603291],[-82.239894886571136,28.527345087298087],[-82.239926748313096,28.527366847088668],[-82.239976301397334,28.527378740931709],[-82.240014052413713,28.527384720868593],[-82.240087343596301,28.52740261033582],[-82.240174652945683,28.527396632245413],[-82.240400988031212,28.527299427121445],[-82.240458428444597,28.527279623596634],[-82.240508063387864,28.527257804487199],[-82.240545697335634,28.527241927816924],[-82.240577538797709,28.527229962244114],[-82.240589412083963,28.527214133888378],[-82.240597357794513,28.527164532197865],[-82.240565640754539,28.527103036522437],[-82.240515946229138,28.527059412085098],[-82.24047435485393,28.5270197616621],[-82.240442599059506,28.526987962290043],[-82.240418692430424,28.526976096318926],[-82.240375111220459,28.526954191348462],[-82.24031952735308,28.526948280958617],[-82.240261997974471,28.526942300896767],[-82.240218323205283,28.526940398384628],[-82.240174661122296,28.526952205205948]]]},"properties":{"OBJECTID":6,"OBJECTID_1":null,"NWICODE":"PEM1Cx","NWISYSDESC":"PALUSTRINE","NWIDESC":"PALUSTRINE-EMERGENT-PERSISTENT-SEASONALLY FLOODED-EXCAVATED","DATESTAMP":1569283200000,"NWISYS":"P","ShapeSTAre":27147.707976900787,"ShapeSTLen":627.15920341793765,"Feature_ID":37839,"Shape_Length":627.15920342071922,"Shape_Area":27147.707977231297}},{"type":"Feature","id":7,"geometry":{"type":"Polygon","coordinates":[[[-82.239650949248613,28.529356906659647],[-82.239712475576965,28.529366784376876],[-82.23986912032818,28.52943036698424],[-82.239942650365464,28.529446184306689],[-82.240012085599957,28.529458090831806],[-82.240105254281616,28.529442177507789],[-82.240180727221016,28.529410450188657],[-82.240230216306472,28.529345020085643],[-82.240287783466115,28.529251756302099],[-82.240321554909741,28.529098935444871],[-82.24034146592669,28.528987823044034],[-82.24033143710281,28.528906560030606],[-82.240287882336659,28.528783582145248],[-82.240246137910077,28.528680304702753],[-82.240222353810267,28.528630710430981],[-82.240172717904102,28.528591115660941],[-82.240097300392762,28.528557324324041],[-82.240029788857882,28.528561293951991],[-82.23995444452666,28.528589108382562],[-82.239873094514564,28.528632778600191],[-82.239771951816508,28.528680286199791],[-82.239708415416388,28.528712095097756],[-82.239627039246713,28.528723958364719],[-82.239504044012918,28.528722030399674],[-82.239271921455881,28.528714026882454],[-82.239178648777653,28.528718044169249],[-82.239117137435954,28.528730010211596],[-82.239059594800864,28.528749799814086],[-82.23901592693241,28.52877165842586],[-82.238958329850661,28.528821234575126],[-82.238952428539434,28.528848984925606],[-82.238958408432424,28.528920402435613],[-82.238970352101347,28.528979979676507],[-82.238994106635801,28.529069232394036],[-82.238998072626757,28.529134723215066],[-82.238992101242914,28.529206148212317],[-82.238984217088699,28.529271659881118],[-82.238978297498988,28.529327098796688],[-82.238996135058386,28.529382777446813],[-82.239031754379894,28.529410507075209],[-82.239095369452016,28.529416451673068],[-82.239162728137217,28.52940652277147],[-82.23928184633985,28.529390677114254],[-82.239389013164214,28.529374839782669],[-82.239482287431116,28.529370821444243],[-82.239575493269484,28.529360945122594],[-82.239625106884432,28.529354934600846],[-82.239650949248613,28.529356906659647]]]},"properties":{"OBJECTID":7,"OBJECTID_1":null,"NWICODE":"PEM1Cx","NWISYSDESC":"PALUSTRINE","NWIDESC":"PALUSTRINE-EMERGENT-PERSISTENT-SEASONALLY FLOODED-EXCAVATED","DATESTAMP":1569283200000,"NWISYS":"P","ShapeSTAre":110738.03541252263,"ShapeSTLen":1343.0628564839105,"Feature_ID":37840,"Shape_Length":1343.062856487423,"Shape_Area":110738.03541238343}},{"type":"Feature","id":8,"geometry":{"type":"Polygon","coordinates":[[[-82.233960129332374,28.516099466581878],[-82.233904542635656,28.516131204970637],[-82.233852921075325,28.516192702313528],[-82.23376371738442,28.51631175659012],[-82.233642635824097,28.51657958453832],[-82.23363466176491,28.516619313353633],[-82.233583130684792,28.516766092377946],[-82.233555321444669,28.517073685205659],[-82.233553332232461,28.517172863132512],[-82.233545361483422,28.517272089238055],[-82.23352560422704,28.517365312418193],[-82.233485930823207,28.517569649016146],[-82.233485919050324,28.51762923567026],[-82.233483916382966,28.51770656863841],[-82.233483961973633,28.517762050406009],[-82.233489806801231,28.517811702054988],[-82.233501798746232,28.517855294692446],[-82.23354946389874,28.517916848635664],[-82.233606949171573,28.517916794929615],[-82.233755755342074,28.517906993952433],[-82.234438286378975,28.517738341988178],[-82.234563358128511,28.517700608252049],[-82.234656549828344,28.517656920719283],[-82.234708111154816,28.517613328502982],[-82.234753790163978,28.51751404802171],[-82.234747873579948,28.517399041200175],[-82.234731950012133,28.517250294778513],[-82.234733959465373,28.517079559604259],[-82.234799412412244,28.516811750153291],[-82.234906494768993,28.516686693454844],[-82.235071327311218,28.516516102580294],[-82.235517709981224,28.516234352432537],[-82.235605055873734,28.516174827319464],[-82.235662521796002,28.516093431398268],[-82.235664549878109,28.516012171317708],[-82.235614923931266,28.515950638645517],[-82.235489939411892,28.515932726211986],[-82.235227961374235,28.515984362155987],[-82.234597017765495,28.516049841012546],[-82.234291439644466,28.516069693878556],[-82.23406728049396,28.516083633497242],[-82.234009709152687,28.51608358467433],[-82.233960129332374,28.516099466581878]]]},"properties":{"OBJECTID":8,"OBJECTID_1":null,"NWICODE":"PUBHx","NWISYSDESC":"PALUSTRINE","NWIDESC":"PALUSTRINE-UNCONSOLIDATED BOTTOM-PERMANENTLY FLOODED-EXCAVATED","DATESTAMP":1569283200000,"NWISYS":"P","ShapeSTAre":280465.31457308563,"ShapeSTLen":2371.2370636089045,"Feature_ID":38682,"Shape_Length":2371.2370636081346,"Shape_Area":280465.31457154086}},{"type":"Feature","id":9,"geometry":{"type":"Polygon","coordinates":[[[-82.239196498078542,28.527361025303968],[-82.239184602012955,28.527392660906845],[-82.239182694087432,28.527420562151995],[-82.239196472369557,28.52744829952254],[-82.239238159249112,28.527476082489791],[-82.239319495325304,28.527493916694887],[-82.239412754649649,28.527515668585597],[-82.239523823276457,28.527549411892124],[-82.239617125256231,28.527589081485516],[-82.239698423878409,28.527622811286232],[-82.239759995181032,28.527662488942511],[-82.239815541812689,28.527684297186838],[-82.239890933191603,28.527708215245173],[-82.23993461959472,28.527720080661389],[-82.23995249090315,28.52772604790189],[-82.239978296122658,28.527708184559167],[-82.239998198759167,28.527670455627298],[-82.240010071539217,28.527632693957955],[-82.239998118192361,28.527571287756789],[-82.239974372020868,28.527505796705178],[-82.239932664761795,28.527444288754463],[-82.239877051226429,28.527394689266984],[-82.239813634252812,28.527376889634116],[-82.239746162073715,28.527364962388884],[-82.239664778147713,28.527353063264414],[-82.239609197938634,28.527337099522153],[-82.239527761780323,28.527319253935772],[-82.239484229034474,28.527313348123187],[-82.239428693939459,28.527301502542468],[-82.239408813169405,28.527301489757271],[-82.239297727679372,28.527295434925435],[-82.239196498078542,28.527361025303968]]]},"properties":{"OBJECTID":9,"OBJECTID_1":null,"NWICODE":"PUSCx","NWISYSDESC":"PALUSTRINE","NWIDESC":"PALUSTRINE-UNCONSOLIDATED SHORE-SEASONALLY FLOODED-EXCAVATED","DATESTAMP":1569283200000,"NWISYS":"P","ShapeSTAre":22256.109135335053,"ShapeSTLen":667.89005069867744,"Feature_ID":38749,"Shape_Length":667.89005069425014,"Shape_Area":22256.109135080333}},{"type":"Feature","id":10,"geometry":{"type":"Polygon","coordinates":[[[-82.234579290135258,28.52745825331677],[-82.234378818632933,28.527483944501466],[-82.234323397733291,28.527493954208612],[-82.234279644361209,28.527515708583596],[-82.234241948818607,28.527549488015246],[-82.234222105882679,28.527603125306065],[-82.234222151899004,28.527658605185643],[-82.234228012779369,28.52770816646445],[-82.234226069463915,28.527741912212527],[-82.234232066162576,28.527763708011737],[-82.234255807829513,28.527829200087087],[-82.234204331385655,28.527966203895428],[-82.234192321234062,28.528009796273004],[-82.234184409867879,28.528043500874187],[-82.2341904201202,28.52808714068766],[-82.234202235501527,28.528114898193476],[-82.234240049230507,28.528136790726048],[-82.234321335793922,28.528160561848296],[-82.234420485856887,28.528166539378613],[-82.234708201393545,28.528168496044717],[-82.234781743202063,28.528158547803695],[-82.234827297812174,28.528154663860231],[-82.234857064680014,28.52812086368807],[-82.234902789777593,28.528039502937808],[-82.234948319082918,28.527908583761782],[-82.234956276568425,28.527787516424183],[-82.234950292723823,28.527692335390057],[-82.234958203470129,28.527611016553944],[-82.234958172196343,28.527555447317873],[-82.234922503981181,28.527499835945743],[-82.234835198871664,28.527456277168465],[-82.234724061449242,28.527444270408452],[-82.234579290135258,28.52745825331677]]]},"properties":{"OBJECTID":10,"OBJECTID_1":null,"NWICODE":"PUSCx","NWISYSDESC":"PALUSTRINE","NWIDESC":"PALUSTRINE-UNCONSOLIDATED SHORE-SEASONALLY FLOODED-EXCAVATED","DATESTAMP":1569283200000,"NWISYS":"P","ShapeSTAre":57060.372777553952,"ShapeSTLen":898.98294022260939,"Feature_ID":38750,"Shape_Length":898.98294022433504,"Shape_Area":57060.372777464756}},{"type":"Feature","id":11,"geometry":{"type":"Polygon","coordinates":[[[-82.239063569177986,28.528073208953977],[-82.239031828471241,28.528085187530142],[-82.23901789403439,28.528101022985201],[-82.238956370651266,28.528138758220511],[-82.238884924984291,28.528265686287796],[-82.23888495503185,28.528309374299127],[-82.238884899022139,28.528352959593875],[-82.238896880303912,28.5283966401221],[-82.238920652501989,28.528436270928847],[-82.238952498231257,28.528458121206839],[-82.238988097781956,28.528474059007799],[-82.239031774186259,28.528475961909606],[-82.239083417998131,28.528470123069503],[-82.239156843833499,28.52843831419634],[-82.239214388361006,28.528382790680681],[-82.239259990090076,28.528267690821565],[-82.239259930173688,28.528202248163744],[-82.239261961812915,28.528158552009391],[-82.239256101885189,28.52812087307343],[-82.239250023961688,28.528097056385846],[-82.239224261603582,28.528075172002108],[-82.23918060304868,28.528059379292202],[-82.2391131558512,28.528057325179621],[-82.239063569177986,28.528073208953977]]]},"properties":{"OBJECTID":11,"OBJECTID_1":null,"NWICODE":"PUSCx","NWISYSDESC":"PALUSTRINE","NWIDESC":"PALUSTRINE-UNCONSOLIDATED SHORE-SEASONALLY FLOODED-EXCAVATED","DATESTAMP":1569283200000,"NWISYS":"P","ShapeSTAre":14372.844544055497,"ShapeSTLen":440.47092834002945,"Feature_ID":38751,"Shape_Length":440.47092833702391,"Shape_Area":14372.844543897982}}]}