{"type":"FeatureCollection","features":[{"type":"Feature","id":1,"geometry":{"type":"Polygon","coordinates":[[[-82.24426844044244,28.522824354232764],[-82.244903928810047,28.522825618006923],[-82.24495461103669,28.522825718497739],[-82.246341492891261,28.522832291239073],[-82.246342031347837,28.522832296173739],[-82.246335240190902,28.519873996509375],[-82.246958039309789,28.51987286542019],[-82.246956584229835,28.519248579366668],[-82.246949327430116,28.516133678620722],[-82.253182147051191,28.516102399461133],[-82.253177998618312,28.515288293341669],[-82.253180707501301,28.514936253341656],[-82.24756632142676,28.514901398630553],[-82.247566865550311,28.511603697523352],[-82.244944990946564,28.51158776539868],[-82.242004164373441,28.511569836767674],[-82.241957293475664,28.511569555109606],[-82.241899762551213,28.511569207275535],[-82.241852872250917,28.511568922637561],[-82.23985269772551,28.515205738122003],[-82.240358702637366,28.515208941661644],[-82.240579471512888,28.515209844151791],[-82.24137834559339,28.515214593417937],[-82.241376582899917,28.515670838666736],[-82.241374841179024,28.51608992530149],[-82.241374608789798,28.516472055700948],[-82.241371194851695,28.517349759010227],[-82.24136709645542,28.519001476064336],[-82.241365729876023,28.519659392883469],[-82.24012012892274,28.519656171399642],[-82.240119799833252,28.51995376090931],[-82.240119470302162,28.520242544056543],[-82.240118886314136,28.520760274148206],[-82.240118349791487,28.521232678062592],[-82.240118200821342,28.521370196488281],[-82.240273897194072,28.52137032740303],[-82.240273108249013,28.522071677409976],[-82.240272275678706,28.522814207620691],[-82.241995737912234,28.522818644183875],[-82.241996044034693,28.522818644420596],[-82.242510795989702,28.522819965552713],[-82.242635387285318,28.522820284709621],[-82.243227276801406,28.522821801106531],[-82.243227911551543,28.522821802757136],[-82.243210482565758,28.515226458533114],[-82.243677550377029,28.51522936832923],[-82.244516121378751,28.515234588970138],[-82.244524318377486,28.518787865105832],[-82.244041654398586,28.518788732533185],[-82.244043536264101,28.519604800867711],[-82.244043539660197,28.519606298504502],[-82.244047516810227,28.519606318604719],[-82.244851112934384,28.519607791043725],[-82.2449291346568,28.519607933979586],[-82.245420785193232,28.51960883111747],[-82.245418829311404,28.52044493870806],[-82.244922590201668,28.520443418625582],[-82.244281814572659,28.520441454563919],[-82.244273958142003,28.520441436315519],[-82.244272730335098,28.520964112878499],[-82.2443350092705,28.520964226465011],[-82.244334881595648,28.521019233316604],[-82.244272600581425,28.521019119704405],[-82.244272347153753,28.521127429615458],[-82.244270675327598,28.521838367084545],[-82.244301816069878,28.521838423894526],[-82.244301687338975,28.521893431636951],[-82.244270547604501,28.521893374839763],[-82.244268358367336,28.522824174898346],[-82.24426844044244,28.522824354232764]]]},"properties":{"OBJECTID":1,"PARCELNO":"R06 423 21 0000 0070 0000","OID_":118549,"CO_NO":37,"PARCEL_ID":"R06 423 21 0000 0070 0000","FILE_T":"R","ASMNT_YR":2025,"BAS_STRT":"03","ATV_STRT":"8","GRP_NO":"2","DOR_UC":"060","PA_UC":" ","SPASS_CD":" ","JV":7072670,"JV_CHNG":0,"JV_CHNG_CD":0,"AV_SD":570827,"AV_NSD":436534,"TV_SD":570827,"TV_NSD":436534,"JV_HMSTD":0,"AV_HMSTD":0,"JV_NON_HMS":0,"AV_NON_HMS":0,"JV_RESD_NO":551403,"AV_RESD_NO":417110,"JV_CLASS_U":6521267,"AV_CLASS_U":19424,"JV_H2O_REC":0,"AV_H2O_REC":0,"JV_CONSRV_":0,"AV_CONSRV_":0,"JV_HIST_CO":0,"AV_HIST_CO":0,"JV_HIST_SI":0,"AV_HIST_SI":0,"JV_WRKNG_W":0,"AV_WRKNG_W":0,"NCONST_VAL":0,"DEL_VAL":0,"PAR_SPLT":0,"DISTR_CD":0,"DISTR_YR":0,"LND_VAL":570827,"LND_UNTS_C":1,"NO_LND_UNT":17820,"LND_SQFOOT":7762392,"DT_LAST_IN":123,"IMP_QUAL":" ","CONST_CLAS":0,"EFF_YR_BLT":0,"ACT_YR_BLT":0,"TOT_LVG_AR":0,"NO_BULDNG":0,"NO_RES_UNT":0,"SPEC_FEAT_":0,"M_PAR_SAL1":" ","QUAL_CD1":" ","VI_CD1":" ","SALE_PRC1":0,"SALE_YR1":0,"SALE_MO1":" ","OR_BOOK1":" ","OR_PAGE1":" ","CLERK_NO1":" ","S_CHNG_CD1":0,"M_PAR_SAL2":" ","QUAL_CD2":" ","VI_CD2":" ","SALE_PRC2":0,"SALE_YR2":0,"SALE_MO2":" ","OR_BOOK2":" ","OR_PAGE2":" ","CLERK_NO2":" ","S_CHNG_CD2":0,"OWN_NAME":"JACK MELTON FAMILY INC","OWN_ADDR1":"21628 LOCKHART RD","OWN_ADDR2":" ","OWN_CITY":"DADE CITY","OWN_STATE":"FLORIDA","OWN_ZIPCD":33523,"OWN_STATE_":"FL","FIDU_NAME":" ","FIDU_ADDR1":" ","FIDU_ADDR2":" ","FIDU_CITY":" ","FIDU_STATE":" ","FIDU_ZIPCD":" ","FIDU_CD":0,"S_LEGAL":"178.2 ACRES MOL IN N3/4 DES IN","APP_STAT":" ","CO_APP_STA":" ","MKT_AR":"08","NBRHD_CD":" ","PUBLIC_LND":" ","TAX_AUTH_C":"CWES","TWN":"23S","RNG":"21E","SEC":"6","CENSUS_BK":"120530401021","PHY_ADDR1":"5981  NATURE COAST BLVD","PHY_ADDR2":" ","PHY_CITY":"BROOKSVILLE","PHY_ZIPCD":34602,"ALT_KEY":"00840923","ASS_TRNSFR":" ","PREV_HMSTD":0,"ASS_DIF_TR":0,"CONO_PRV_H":0,"PARCEL_ID_":" ","YR_VAL_TRN":0,"SEQ_NO":119741,"RS_ID":"2B19","MP_ID":"00373EB2","STATE_PAR_":"C37-000-362-0530-0","SPC_CIR_CD":0,"SPC_CIR_YR":0,"SPC_CIR_TX":" ","Shape_Length":7211.8963381054164,"Shape_Area":720429.81177546352}}]}