{"type":"FeatureCollection","features":[{"type":"Feature","id":1,"geometry":{"type":"LineString","coordinates":[[-82.350162637920619,28.567459464789049],[-82.350206846991298,28.567459486934737],[-82.350156064616598,28.563890188309529],[-82.350209316953112,28.563810546675835]]},"properties":{"OBJECTID":1,"D":6,"MAXABSQ":-1,"C":135,"SF":-1,"ID":253121,"LABEL":"FP-206397","LENGTH":1346,"MATERIAL":"PVC","START_NDID":12504,"START_NODE":"J-820109","STOP_NDID":6162,"STOP_NODE":"J-817460","MAX_V":-1,"Shape_Length":1345.6949932100397}},{"type":"Feature","id":2,"geometry":{"type":"LineString","coordinates":[[-82.350101113251412,28.56431024629207],[-82.350028936271968,28.564313961123634],[-82.350017728210844,28.564313257063908],[-82.34921662229128,28.564326331548944],[-82.349187273150235,28.564326833359701],[-82.349151776108272,28.564322187230211]]},"properties":{"OBJECTID":2,"D":6,"MAXABSQ":-1,"C":135,"SF":-1,"ID":22199,"LABEL":"P-15809","LENGTH":305,"MATERIAL":"PVC","START_NDID":10751,"START_NODE":"J-817485","STOP_NDID":6012,"STOP_NODE":"J-816338","MAX_V":-1,"Shape_Length":304.95380113397442}},{"type":"Feature","id":3,"geometry":{"type":"LineString","coordinates":[[-82.349151776108272,28.564322187230211],[-82.349119810819232,28.564329038022674],[-82.34910638888249,28.564330554974916],[-82.349099880078896,28.564331685600603],[-82.349093651368435,28.564332730245269],[-82.349087100540132,28.564333870604589],[-82.349061996300676,28.564339658610741],[-82.349055301844189,28.564341645065113],[-82.349049190342981,28.564343751034624],[-82.349043470236253,28.56434551358096],[-82.349036882878011,28.564347857302227],[-82.349030970343819,28.564350310676325],[-82.349025224918094,28.564352425329538],[-82.349019090244639,28.564355062171426],[-82.349013167391448,28.564357692967732],[-82.348995995034471,28.564366415797576],[-82.348990533683661,28.56436965185452],[-82.348985158589414,28.564372593403878],[-82.348979577175712,28.564376264321602],[-82.3489742918823,28.564379513676869],[-82.348959176037781,28.564390252708861],[-82.348954112016528,28.564394000679791],[-82.348949063215713,28.564398113030435],[-82.34894434893468,28.564402111757261],[-82.348939840302336,28.564406122331722],[-82.3489350200812,28.564410587511908],[-82.348922437434595,28.564423356648476],[-82.348918244949246,28.564427822964664],[-82.348913940411421,28.564432791504423],[-82.348910348115012,28.564437407545768],[-82.348906663432345,28.564441876681684],[-82.348902787275733,28.564446853746059],[-82.348899145943747,28.564452187749875],[-82.348896080663081,28.564456964705709],[-82.348892857611631,28.564461605925544],[-82.34888943404215,28.564467318915217],[-82.348883831312236,28.564477281269081],[-82.348878328522048,28.564487792057161],[-82.348875766307287,28.564493497331764],[-82.348871368498507,28.564504192301875],[-82.348869245410356,28.564509857942944],[-82.348867448027349,28.564515570877688],[-82.348865684946148,28.564520821668346],[-82.348864051856268,28.564526286650814],[-82.348862427679094,28.564532092651529],[-82.3488610060312,28.564537909133016],[-82.348757568256403,28.564998968378301],[-82.348754413630175,28.565013032056846],[-82.348753259671625,28.565019727955317],[-82.348759095562684,28.565022834586731]]},"properties":{"OBJECTID":3,"D":2,"MAXABSQ":-1,"C":135,"SF":-1,"ID":21940,"LABEL":"P-15810","LENGTH":312,"MATERIAL":"PVC","START_NDID":6012,"START_NODE":"J-816338","STOP_NDID":14744,"STOP_NODE":"J-1679","MAX_V":-1,"Shape_Length":311.76255672001525}},{"type":"Feature","id":4,"geometry":{"type":"LineString","coordinates":[[-82.350180525058761,28.563761317596793],[-82.350180601386981,28.563753947413922],[-82.350181151116232,28.563727088999151]]},"properties":{"OBJECTID":4,"D":2,"MAXABSQ":-1,"C":135,"SF":-1,"ID":19324,"LABEL":"P-15885","LENGTH":12,"MATERIAL":"PVC","START_NDID":10098,"START_NODE":"J-816433","STOP_NDID":4934,"STOP_NODE":"J-816432","MAX_V":-1,"Shape_Length":12.447017569636465}},{"type":"Feature","id":5,"geometry":{"type":"LineString","coordinates":[[-82.343280567830377,28.564378964426997],[-82.343280620892699,28.56437894915145],[-82.34328746018069,28.564376918609593],[-82.343300986768213,28.564372101567628],[-82.343313422869485,28.564366764719288],[-82.343319842022396,28.564363907388181],[-82.343326247428536,28.564360654043529],[-82.343332182829243,28.56435752565249],[-82.343338544955529,28.5643538956211],[-82.343349726819355,28.564347019005162],[-82.343355637470367,28.564342984440877],[-82.343360969469657,28.564339194744704],[-82.343366436152863,28.564335148926574],[-82.343371873552854,28.564330719510824],[-82.343376833476256,28.564326512704653],[-82.343381895248157,28.564322011354964],[-82.343389983302586,28.564314079558901],[-82.343440590549818,28.564262491403245],[-82.343532461900423,28.56416883970952],[-82.343537145329677,28.564163434451945],[-82.343541542372435,28.564158097302251],[-82.343545788448267,28.564152319105997],[-82.343549769943607,28.5641461290293],[-82.34355344503453,28.564139598686708],[-82.34355640961131,28.564132998633788],[-82.343559012183292,28.564126684156633],[-82.343561349415737,28.564119724022714],[-82.343563151057353,28.564112358195111],[-82.343564941052506,28.564101885895401],[-82.343567120379959,28.564082755935889],[-82.343583958388862,28.563934990156167],[-82.343589578884533,28.563789349897327],[-82.343566818317413,28.563579658825425]]},"properties":{"OBJECTID":5,"D":6,"MAXABSQ":-1,"C":135,"SF":-1,"ID":36971,"LABEL":"P-15965D","LENGTH":338,"MATERIAL":"PVC","START_NDID":2409,"START_NODE":"J-FH_Tee-1804","STOP_NDID":15184,"STOP_NODE":"J-2157","MAX_V":-1,"Shape_Length":330.11163945085116}},{"type":"Feature","id":6,"geometry":{"type":"LineString","coordinates":[[-82.350158497360184,28.568037824168073],[-82.350157360649447,28.567977596732803]]},"properties":{"OBJECTID":6,"D":6,"MAXABSQ":-1,"C":120,"SF":-1,"ID":34783,"LABEL":"P-17053C","LENGTH":898,"MATERIAL":"DI","START_NDID":3249,"START_NODE":"J-FH_Tee-2569","STOP_NDID":10752,"STOP_NODE":"J-817486","MAX_V":-1,"Shape_Length":21.901384887856484}},{"type":"Feature","id":7,"geometry":{"type":"LineString","coordinates":[[-82.350101113251412,28.56431024629207],[-82.350096355456245,28.564374507700396]]},"properties":{"OBJECTID":7,"D":6,"MAXABSQ":-1,"C":135,"SF":-1,"ID":32498,"LABEL":"P-17059A","LENGTH":23,"MATERIAL":"PVC","START_NDID":10751,"START_NODE":"J-817485","STOP_NDID":2152,"STOP_NODE":"J-FH_Tee-1570","MAX_V":-1,"Shape_Length":23.414922175749886}},{"type":"Feature","id":8,"geometry":{"type":"LineString","coordinates":[[-82.350096355456245,28.564374507700396],[-82.350096355456245,28.564374507700396],[-82.350103436184227,28.564701985237114],[-82.350121036036526,28.565490739158783],[-82.350139352073526,28.566315994911495],[-82.350138670612779,28.567141644738648],[-82.350140867779544,28.567459530581552]]},"properties":{"OBJECTID":8,"D":6,"MAXABSQ":-1,"C":135,"SF":-1,"ID":32499,"LABEL":"P-17059B","LENGTH":1122,"MATERIAL":"PVC","START_NDID":2152,"START_NODE":"J-FH_Tee-1570","STOP_NDID":12503,"STOP_NODE":"J-820108","MAX_V":-1,"Shape_Length":1121.8331961272288}},{"type":"Feature","id":9,"geometry":{"type":"LineString","coordinates":[[-82.350140867779544,28.567459530581552],[-82.350140867779544,28.567459530581552],[-82.350141392697196,28.567535553637118]]},"properties":{"OBJECTID":9,"D":6,"MAXABSQ":-1,"C":135,"SF":-1,"ID":34779,"LABEL":"P-17059C","LENGTH":28,"MATERIAL":"PVC","START_NDID":12503,"START_NODE":"J-820108","STOP_NDID":2402,"STOP_NODE":"J-FH_Tee-1799","MAX_V":-1,"Shape_Length":27.642052525374911}},{"type":"Feature","id":10,"geometry":{"type":"LineString","coordinates":[[-82.350141392697196,28.567535553637118],[-82.350141394407942,28.567535801400798],[-82.350157426893119,28.567966080927011],[-82.350157554018011,28.567971544131062],[-82.350157360649447,28.567977596732803]]},"properties":{"OBJECTID":10,"D":6,"MAXABSQ":-1,"C":135,"SF":-1,"ID":34780,"LABEL":"P-17059D","LENGTH":161,"MATERIAL":"PVC","START_NDID":2402,"START_NODE":"J-FH_Tee-1799","STOP_NDID":10752,"STOP_NODE":"J-817486","MAX_V":-1,"Shape_Length":160.81020795783343}},{"type":"Feature","id":11,"geometry":{"type":"LineString","coordinates":[[-82.350209316953112,28.563810546675835],[-82.350208757693025,28.563761590826278],[-82.350181468821518,28.563761424705067],[-82.350180525058761,28.563761317596793]]},"properties":{"OBJECTID":11,"D":6,"MAXABSQ":-1,"C":135,"SF":-1,"ID":38676,"LABEL":"P-17573A","LENGTH":27,"MATERIAL":"PVC","START_NDID":6162,"START_NODE":"J-817460","STOP_NDID":10098,"STOP_NODE":"J-816433","MAX_V":-1,"Shape_Length":26.866319002504063}},{"type":"Feature","id":12,"geometry":{"type":"LineString","coordinates":[[-82.350180525058761,28.563761317596793],[-82.350083462601049,28.563762542502989],[-82.350090114560018,28.564059330217678],[-82.350101113251412,28.56431024629207]]},"properties":{"OBJECTID":12,"D":6,"MAXABSQ":-1,"C":135,"SF":-1,"ID":38677,"LABEL":"P-17573B","LENGTH":230,"MATERIAL":"PVC","START_NDID":10098,"START_NODE":"J-816433","STOP_NDID":10751,"STOP_NODE":"J-817485","MAX_V":-1,"Shape_Length":230.39139159916078}},{"type":"Feature","id":13,"geometry":{"type":"LineString","coordinates":[[-82.350162641900553,28.567451726722627],[-82.350162637920619,28.567459464789049]]},"properties":{"OBJECTID":13,"D":8,"MAXABSQ":-1,"C":135,"SF":-1,"ID":31631,"LABEL":"P-19448A","LENGTH":3,"MATERIAL":"PVC","START_NDID":5264,"START_NODE":"J-820134","STOP_NDID":12504,"STOP_NODE":"J-820109","MAX_V":-1,"Shape_Length":2.8135160330452882}},{"type":"Feature","id":14,"geometry":{"type":"LineString","coordinates":[[-82.350162637920619,28.567459464789049],[-82.350162637920619,28.567459464789049],[-82.350162650738596,28.567461454620421],[-82.350164742217089,28.567788324675849],[-82.350168717002177,28.567975924109792],[-82.350170097292533,28.568041067552411]]},"properties":{"OBJECTID":14,"D":8,"MAXABSQ":-1,"C":135,"SF":-1,"ID":252530,"LABEL":"P-19448B(1)","LENGTH":1556,"MATERIAL":"PVC","START_NDID":12504,"START_NODE":"J-820109","STOP_NDID":12496,"STOP_NODE":"J-820100","MAX_V":-1,"Shape_Length":211.48535868746006}},{"type":"Feature","id":15,"geometry":{"type":"LineString","coordinates":[[-82.350209316953112,28.563810546675835],[-82.350209311817579,28.563829228322064],[-82.350210433348394,28.563888523970199],[-82.350191466396467,28.563888666418649],[-82.350199527714111,28.564381950721366],[-82.350215275290182,28.565345475154409],[-82.350224170791165,28.565889731842077],[-82.350231200200128,28.566302223548451],[-82.350238189620995,28.566731313581375],[-82.350251177374858,28.56752862167254],[-82.350256923439872,28.567881346400757],[-82.350258872847462,28.567977527312149],[-82.350184280065122,28.567977820187092],[-82.350174038296956,28.567977860364611],[-82.350157360649447,28.567977596732803]]},"properties":{"OBJECTID":15,"D":2,"MAXABSQ":-1,"C":135,"SF":-1,"ID":25501,"LABEL":"P-206397","LENGTH":1554,"MATERIAL":"PVC","START_NDID":6162,"START_NODE":"J-817460","STOP_NDID":10752,"STOP_NODE":"J-817486","MAX_V":-1,"Shape_Length":1553.8721450598082}},{"type":"Feature","id":16,"geometry":{"type":"LineString","coordinates":[[-82.350140867779544,28.567459530581552],[-82.350145087537328,28.567459518319797],[-82.350162637920619,28.567459464789049]]},"properties":{"OBJECTID":16,"D":6,"MAXABSQ":-1,"C":135,"SF":-1,"ID":19106,"LABEL":"P-209432","LENGTH":7,"MATERIAL":"PVC","START_NDID":12503,"START_NODE":"J-820108","STOP_NDID":12504,"STOP_NODE":"J-820109","MAX_V":-1,"Shape_Length":6.9880008886444811}},{"type":"Feature","id":17,"geometry":{"type":"LineString","coordinates":[[-82.35007436343075,28.564374641433808],[-82.350096355456245,28.564374507700396]]},"properties":{"OBJECTID":17,"D":6,"MAXABSQ":-1,"C":130,"SF":-1,"ID":27549,"LABEL":"P-FH-9459","LENGTH":7,"MATERIAL":"DI","START_NDID":17026,"START_NODE":"FH-9459","STOP_NDID":2152,"STOP_NODE":"J-FH_Tee-1570","MAX_V":-1,"Shape_Length":7.0595555196052375}},{"type":"Feature","id":18,"geometry":{"type":"LineString","coordinates":[[-82.349819388443436,28.567575077067037],[-82.350141392697196,28.567535553637118]]},"properties":{"OBJECTID":18,"D":6,"MAXABSQ":-1,"C":130,"SF":-1,"ID":27755,"LABEL":"P-FH-9978","LENGTH":104,"MATERIAL":"DI","START_NDID":17789,"START_NODE":"FH-9978","STOP_NDID":2402,"STOP_NODE":"J-FH_Tee-1799","MAX_V":-1,"Shape_Length":104.35370524406579}}]}