{"type":"FeatureCollection","features":[{"type":"Feature","id":1,"geometry":{"type":"Polygon","coordinates":[[[-82.428453744917093,28.974103936378569],[-82.429755686084135,28.973411898767935],[-82.431670517994235,28.976197379815151],[-82.433115619675675,28.975424324665596],[-82.43029365423331,28.971343700186242],[-82.433148537080413,28.969816994433881],[-82.432831993568684,28.969287537541568],[-82.432844412652031,28.96928184728915],[-82.433107589367253,28.969161256972725],[-82.433863040244191,28.970423175293735],[-82.433947908910426,28.970377745320288],[-82.434364317778261,28.970154844521289],[-82.434632655598648,28.970011205386331],[-82.434846361997771,28.969896808757124],[-82.435059913563464,28.969782494743832],[-82.435079631287181,28.969771938581111],[-82.435079749574115,28.96590890377481],[-82.434545914041379,28.96590517133453],[-82.43435201812477,28.96590386399048],[-82.434158119664431,28.965902519427505],[-82.43396422326461,28.965901174620281],[-82.433770326856589,28.965899830446418],[-82.433576431481242,28.965898486016929],[-82.4333825319993,28.965897141274567],[-82.43318863557964,28.965895798100313],[-82.432994739203963,28.965894451957688],[-82.432800843808721,28.96589310916114],[-82.432606947468827,28.965891760683483],[-82.431144321548857,28.965881606162561],[-82.431260050854533,28.966074938093861],[-82.431351501858785,28.966227711273483],[-82.431102478526611,28.966341813295003],[-82.431077702927425,28.966353166258614],[-82.431075019219136,28.966348676700605],[-82.430909922060522,28.96607251060415],[-82.430794339468903,28.965879171007938],[-82.429899205505407,28.965872937079634],[-82.429586495384029,28.9658707606763],[-82.426790456058129,28.965851272146978],[-82.426792590672505,28.96528979219304],[-82.426571339094679,28.96537108877726],[-82.426347711024334,28.96544719275315],[-82.426121863507774,28.965518051830387],[-82.425893959733557,28.965583615589395],[-82.425664156672156,28.965643837144231],[-82.425432615341151,28.965698674158197],[-82.425199502873824,28.965748087966119],[-82.424964981199849,28.965792044348643],[-82.424945574436038,28.965795425887141],[-82.424926163056995,28.965798771348254],[-82.424919071635529,28.965799983419057],[-82.424899890895134,28.965803233294828],[-82.424880699280578,28.965806453327318],[-82.424827115697482,28.965815231382983],[-82.424807594425872,28.965818357658968],[-82.424788063386742,28.965821448700517],[-82.424781067229276,28.965822542954626],[-82.424761209360426,28.965825628533747],[-82.424741346863343,28.965828678935885],[-82.424734980700507,28.965829644251368],[-82.424714862518201,28.965832674677408],[-82.424694733540605,28.96583566985732],[-82.424693417858265,28.965835869469419],[-82.424692038399343,28.965835860334924],[-82.424429421926064,28.965871277348111],[-82.424385536047282,28.965876494845819],[-82.424341623101782,28.965881523806747],[-82.424299752787775,28.965886131636811],[-82.42414844782482,28.965901354172541],[-82.424077606568787,28.965907687296113],[-82.424078945343638,28.966986984804741],[-82.426867036054162,28.967054038829524],[-82.426738966492721,28.972015741653305],[-82.428453744917093,28.974103936378569]],[[-82.433020181413085,28.96901524549093],[-82.432757706663978,28.969135512041625],[-82.43274467389449,28.969141482736568],[-82.431165017092269,28.9664992202013],[-82.431189180017071,28.966488150378137],[-82.431438905275897,28.966373725508319],[-82.433020181413085,28.96901524549093]]]},"properties":{"OBJECTID":1,"PARCELNO":"19E17S30      31000","OID_":100799,"CO_NO":19,"PARCEL_ID":"19E17S30      31000","FILE_T":"R","ASMNT_YR":2025,"BAS_STRT":"05","ATV_STRT":"8","GRP_NO":"4","DOR_UC":"099","PA_UC":"00","SPASS_CD":" ","JV":1431260,"JV_CHNG":0,"JV_CHNG_CD":0,"AV_SD":1431260,"AV_NSD":1431260,"TV_SD":1431260,"TV_NSD":1431260,"JV_HMSTD":0,"AV_HMSTD":0,"JV_NON_HMS":0,"AV_NON_HMS":0,"JV_RESD_NO":1431260,"AV_RESD_NO":1431260,"JV_CLASS_U":0,"AV_CLASS_U":0,"JV_H2O_REC":0,"AV_H2O_REC":0,"JV_CONSRV_":0,"AV_CONSRV_":0,"JV_HIST_CO":0,"AV_HIST_CO":0,"JV_HIST_SI":0,"AV_HIST_SI":0,"JV_WRKNG_W":0,"AV_WRKNG_W":0,"NCONST_VAL":0,"DEL_VAL":0,"PAR_SPLT":0,"DISTR_CD":0,"DISTR_YR":0,"LND_VAL":1431260,"LND_UNTS_C":1,"NO_LND_UNT":15034,"LND_SQFOOT":6548925,"DT_LAST_IN":1221,"IMP_QUAL":" ","CONST_CLAS":0,"EFF_YR_BLT":0,"ACT_YR_BLT":0,"TOT_LVG_AR":0,"NO_BULDNG":0,"NO_RES_UNT":0,"SPEC_FEAT_":0,"M_PAR_SAL1":" ","QUAL_CD1":" ","VI_CD1":" ","SALE_PRC1":0,"SALE_YR1":0,"SALE_MO1":" ","OR_BOOK1":" ","OR_PAGE1":" ","CLERK_NO1":" ","S_CHNG_CD1":0,"M_PAR_SAL2":" ","QUAL_CD2":" ","VI_CD2":" ","SALE_PRC2":0,"SALE_YR2":0,"SALE_MO2":" ","OR_BOOK2":" ","OR_PAGE2":" ","CLERK_NO2":" ","S_CHNG_CD2":0,"OWN_NAME":"APOLLO BEACH INVESTMENTS","OWN_ADDR1":"PO BOX 420","OWN_ADDR2":" ","OWN_CITY":"PINELAND","OWN_STATE":"FL","OWN_ZIPCD":33945,"OWN_STATE_":" ","FIDU_NAME":" ","FIDU_ADDR1":" ","FIDU_ADDR2":" ","FIDU_CITY":" ","FIDU_STATE":" ","FIDU_ZIPCD":" ","FIDU_CD":0,"S_LEGAL":"PT OF NW1/4 & SW1/4 SEC 30-17-","APP_STAT":" ","CO_APP_STA":" ","MKT_AR":"82","NBRHD_CD":"1514","PUBLIC_LND":" ","TAX_AUTH_C":"000X","TWN":"17S","RNG":"19E","SEC":"30","CENSUS_BK":"120174503102","PHY_ADDR1":"6906 N LECANTO HWY","PHY_ADDR2":" ","PHY_CITY":"BEVERLY HILLS","PHY_ZIPCD":34465,"ALT_KEY":"2279842","ASS_TRNSFR":" ","PREV_HMSTD":0,"ASS_DIF_TR":0,"CONO_PRV_H":0,"PARCEL_ID_":" ","YR_VAL_TRN":0,"SEQ_NO":101119,"RS_ID":"2B34","MP_ID":"0017D15F","STATE_PAR_":"C19-000-156-0927-4","SPC_CIR_CD":0,"SPC_CIR_YR":0,"SPC_CIR_TX":" ","Shape_Length":5544.0234065940058,"Shape_Area":608474.31140068977}}]}