{"type":"FeatureCollection","features":[{"type":"Feature","id":1,"geometry":{"type":"Polygon","coordinates":[[[-82.415486400520109,28.980419439913632],[-82.415462562929136,28.980500741211763],[-82.415456694637342,28.980572183734953],[-82.415454726266461,28.980617837907374],[-82.415506311435038,28.980738822105156],[-82.415587666269545,28.980788475766893],[-82.415686900055789,28.980782537051173],[-82.415956757644778,28.980655601979421],[-82.416000389482392,28.98059004458846],[-82.416006328823087,28.980568256935161],[-82.415962709850049,28.980512622001299],[-82.415893204525076,28.980469034934483],[-82.415825685408521,28.980425335220858],[-82.415811928004274,28.980330139517211],[-82.415875279675674,28.980270642251469],[-82.415974618792475,28.980248838231578],[-82.416268277745317,28.980264641613115],[-82.41633171157747,28.980270588871164],[-82.416413102145683,28.980252803801484],[-82.416494448439181,28.980137639473366],[-82.416512230291701,28.980078202725011],[-82.416512209347772,28.979973067452132],[-82.416506278278746,28.979901588340411],[-82.416526102705646,28.979818226751561],[-82.416631344463184,28.979719051598238],[-82.416857497717331,28.979641601157926],[-82.416764267564105,28.979399616482453],[-82.416551961067796,28.979437299243834],[-82.41641297801371,28.979486930013483],[-82.416093598585945,28.979663527268041],[-82.415869440305073,28.979830208352393],[-82.415706698865506,28.97997903532071],[-82.41561935478731,28.980127753618465],[-82.415486400520109,28.980419439913632]]]},"properties":{"OBJECTID":1,"OBJECTID_1":null,"NWICODE":"PAB4H","NWISYSDESC":"PALUSTRINE","NWIDESC":"PALUSTRINE-AQUATIC BED-FLOATING VASCULAR-PERMANENTLY FLOODED","DATESTAMP":1569283200000,"NWISYS":"P","ShapeSTAre":90498.555848659948,"ShapeSTLen":1603.0930784302591,"Feature_ID":53346,"Shape_Length":1603.0930784280811,"Shape_Area":90498.555849134878}},{"type":"Feature","id":2,"geometry":{"type":"Polygon","coordinates":[[[-82.416845597773573,28.979284540408017],[-82.416795952035343,28.979338110090353],[-82.416764267564105,28.979399616482453],[-82.416857497717331,28.979641601157926],[-82.417087674720804,28.979840084514102],[-82.4172325089623,28.979905544924126],[-82.417343638446923,28.979901571144982],[-82.417456771117131,28.979846014091528],[-82.417532204889895,28.979790513536571],[-82.417587734567519,28.979725004409513],[-82.417613574204864,28.979653630611654],[-82.417633335714982,28.979548449248913],[-82.417607565508305,28.979486865729886],[-82.417526204677372,28.979405545114592],[-82.417395223084142,28.979344032800068],[-82.417307948694429,28.979312246566515],[-82.417020206201457,28.979234865500292],[-82.416932909897,28.979234926829267],[-82.416845597773573,28.979284540408017]]]},"properties":{"OBJECTID":2,"OBJECTID_1":null,"NWICODE":"PEM1F","NWISYSDESC":"PALUSTRINE","NWIDESC":"PALUSTRINE-EMERGENT-PERSISTENT-SEMIPERMANENTLY FLOODED","DATESTAMP":1569283200000,"NWISYS":"P","ShapeSTAre":46715.769318474129,"ShapeSTLen":800.15846769791403,"Feature_ID":53389,"Shape_Length":800.15846770133066,"Shape_Area":46715.7693189641}},{"type":"Feature","id":3,"geometry":{"type":"Polygon","coordinates":[[[-82.415254333427228,28.98094331419237],[-82.415129290032255,28.980969066904709],[-82.415030076241834,28.981018630329707],[-82.414948797771871,28.981123854962878],[-82.414922976113729,28.981238853373203],[-82.414960699966088,28.98138764726437],[-82.415030088099769,28.981492821106546],[-82.415266209166944,28.98170310361493],[-82.415411018688914,28.981802329303619],[-82.415678927756133,28.981951118221943],[-82.415815817962965,28.981982810733246],[-82.415867413905431,28.98202257340925],[-82.41591105512623,28.982109787138235],[-82.415873379007294,28.982199097505156],[-82.41577808744178,28.982264580882855],[-82.415684898844404,28.982292458840956],[-82.415254317128515,28.982423281422971],[-82.41511544930286,28.982469000030772],[-82.415065804473784,28.982506689861861],[-82.415046054578724,28.982550271324573],[-82.415065414922978,28.982617572985248],[-82.415097510292938,28.982655922718216],[-82.415115473524367,28.982667311771547],[-82.415653112026092,28.982816183637439],[-82.415790080243866,28.982820142586554],[-82.415877355808689,28.982792336075303],[-82.415996446730688,28.982776413352667],[-82.416115421967191,28.982760567576442],[-82.416333685181726,28.982792358718804],[-82.416434857238883,28.982792323363185],[-82.416522167488509,28.982820098487036],[-82.416589622052626,28.982859772958129],[-82.416641224549466,28.982931204378616],[-82.416633295130012,28.983030493110277],[-82.416571781822128,28.983139594998804],[-82.41649643172839,28.983195196706568],[-82.416351534922072,28.983387537461546],[-82.416270193244387,28.983532453380928],[-82.41623251534493,28.98368518859419],[-82.416269227764602,28.983896421936191],[-82.416605986181466,28.984219569482679],[-82.416981178393044,28.984535379660393],[-82.416976628357133,28.984484729944004],[-82.416956709075791,28.984413303300617],[-82.41693301093548,28.98436375508324],[-82.416938899023918,28.98427442842242],[-82.416970553140501,28.984202971793092],[-82.417008384973741,28.98416533414122],[-82.417101524107778,28.98414347271159],[-82.417165097727093,28.984143504688394],[-82.417415095587131,28.984187074991247],[-82.41752031924068,28.984230718154627],[-82.417558042099316,28.984286333850559],[-82.417563908247871,28.984351872464423],[-82.417514348062056,28.98444104421441],[-82.417450857603356,28.984518501603191],[-82.417345610808056,28.984617676469551],[-82.417216915932087,28.984733804728389],[-82.417386662390342,28.984876684252839],[-82.417672487191325,28.985087574092713],[-82.41777619737023,28.985062053103871],[-82.417837698702954,28.985062095708251],[-82.418250393799227,28.98510174818432],[-82.418419063032374,28.985058071112675],[-82.418506365197089,28.985008545882234],[-82.418607555707069,28.98488156912099],[-82.418689013417634,28.98467123450374],[-82.418764324817005,28.984435115623157],[-82.418871529794487,28.984044249582052],[-82.418889361217097,28.983839899307274],[-82.418871439527166,28.983669344245353],[-82.418821837902883,28.983532370489687],[-82.418714766536311,28.983393493206979],[-82.418597661364402,28.98328437172388],[-82.418502448178515,28.983244736838721],[-82.418040172392509,28.983095946233952],[-82.417859549477868,28.983101877058939],[-82.417752373111782,28.983117761712798],[-82.417345649765991,28.983222961632624],[-82.417246377006677,28.983234828773682],[-82.417176965817205,28.983195088525342],[-82.417133374347671,28.98316336790662],[-82.417077869740254,28.983117725975077],[-82.417040015335928,28.98306419209429],[-82.416928947654611,28.982875616526066],[-82.416740492695567,28.982627670766462],[-82.416710697200116,28.982500690702768],[-82.416696849548359,28.982419355306728],[-82.416748354817642,28.982351876702111],[-82.416873329153603,28.982274551160319],[-82.416978607228415,28.982171365015365],[-82.417036142975235,28.98205427476298],[-82.417004373577782,28.981929235361431],[-82.416917037497953,28.981812204517361],[-82.416754350882556,28.981691184478709],[-82.416111482085427,28.981328196219671],[-82.41544283146898,28.981014681540319],[-82.415349533213629,28.980953200616693],[-82.415254333427228,28.98094331419237]]]},"properties":{"OBJECTID":3,"OBJECTID_1":null,"NWICODE":"PEM1F","NWISYSDESC":"PALUSTRINE","NWIDESC":"PALUSTRINE-EMERGENT-PERSISTENT-SEMIPERMANENTLY FLOODED","DATESTAMP":1569283200000,"NWISYS":"P","ShapeSTAre":774191.0470062081,"ShapeSTLen":6155.538893620761,"Feature_ID":53391,"Shape_Length":5644.2423005928986,"Shape_Area":707992.6424964614}},{"type":"Feature","id":4,"geometry":{"type":"Polygon","coordinates":[[[-82.420206455738295,28.986661222968021],[-82.420276237922877,28.986694906164345],[-82.420435695753127,28.986829115945241],[-82.420423184325372,28.986742592344026],[-82.420335821197909,28.986692912661834],[-82.420230607330993,28.986661228697848],[-82.420206455738295,28.986661222968021]]]},"properties":{"OBJECTID":4,"OBJECTID_1":null,"NWICODE":"PFO1A","NWISYSDESC":"PALUSTRINE","NWIDESC":"PALUSTRINE-FORESTED-BROAD-LEAVED DECIDUOUS-TEMPORARY FLOODED","DATESTAMP":1569283200000,"NWISYS":"P","ShapeSTAre":109754.57130460234,"ShapeSTLen":1509.5872914852482,"Feature_ID":53399,"Shape_Length":204.27976610495227,"Shape_Area":1055.7256902968775}},{"type":"Feature","id":5,"geometry":{"type":"Polygon","coordinates":[[[-82.412797851803347,28.975570496734118],[-82.41276806042444,28.975659712644497],[-82.412760191365408,28.975764942603057],[-82.412797825567253,28.975852127171358],[-82.412855402358531,28.975879967132354],[-82.412960603672488,28.975895779633994],[-82.413367263630306,28.975901745955309],[-82.413698676855532,28.975858100591097],[-82.413805745366389,28.975840290457207],[-82.413879305180032,28.97578674390758],[-82.413942671707559,28.975665647947746],[-82.413968469168069,28.975510855567038],[-82.413930860831385,28.975389907944265],[-82.413785964679292,28.97522915521332],[-82.413680789694922,28.975179579965246],[-82.413561737850586,28.975207368161101],[-82.413506236705729,28.975284743267395],[-82.413474482230583,28.975356187752137],[-82.413442727715932,28.975427633131343],[-82.413387160684593,28.975499067780671],[-82.413305805645379,28.975526801239983],[-82.41320453376359,28.975544616626276],[-82.413061722490866,28.975516913185626],[-82.412974415649046,28.975505014042948],[-82.412867312975365,28.975526834252545],[-82.412797851803347,28.975570496734118]]]},"properties":{"OBJECTID":5,"OBJECTID_1":null,"NWICODE":"PFO1C","NWISYSDESC":"PALUSTRINE","NWIDESC":"PALUSTRINE-FORESTED-BROAD-LEAVED DECIDUOUS-SEASONALLY FLOODED","DATESTAMP":1569283200000,"NWISYS":"P","ShapeSTAre":62868.102641296682,"ShapeSTLen":1085.7494255056342,"Feature_ID":53401,"Shape_Length":1085.7494255021124,"Shape_Area":62868.102640443212}},{"type":"Feature","id":6,"geometry":{"type":"Polygon","coordinates":[[[-82.414319744160323,28.979195293669324],[-82.414276037975014,28.979272704903732],[-82.414270133027628,28.979350075479903],[-82.414337590058238,28.979588154161846],[-82.414412967362935,28.979725117051885],[-82.414526064207038,28.979784547197553],[-82.41468088262377,28.979873819609526],[-82.414811850187277,28.979982973138256],[-82.414924900176445,28.980094050436829],[-82.415192788069376,28.980242930690334],[-82.415343589645289,28.980347936935164],[-82.415486400520109,28.980419439913632],[-82.41561935478731,28.980127753618465],[-82.415706698865506,28.97997903532071],[-82.415113482015911,28.97953655122026],[-82.414813776581283,28.979344117562242],[-82.414551968641476,28.979167533143524],[-82.414389207084511,28.979151630407248],[-82.414319744160323,28.979195293669324]]]},"properties":{"OBJECTID":6,"OBJECTID_1":null,"NWICODE":"PFO1C","NWISYSDESC":"PALUSTRINE","NWIDESC":"PALUSTRINE-FORESTED-BROAD-LEAVED DECIDUOUS-SEASONALLY FLOODED","DATESTAMP":1569283200000,"NWISYS":"P","ShapeSTAre":93313.184701833685,"ShapeSTLen":1360.4163647886126,"Feature_ID":53402,"Shape_Length":1360.4163647844546,"Shape_Area":93313.184700875441}},{"type":"Feature","id":7,"geometry":{"type":"Polygon","coordinates":[[[-82.436403656713807,28.977353855818087],[-82.436427433774156,28.977391546216111],[-82.436496880524757,28.977429179527768],[-82.436659559132607,28.977456992913272],[-82.436727003627013,28.977435146323263],[-82.436776603638037,28.977369699128666],[-82.436822278726012,28.97728641670313],[-82.436752860049026,28.977341961712568],[-82.436927411922412,28.977072133367162],[-82.436959147612356,28.976984803443752],[-82.436941299773309,28.976945035779718],[-82.436877752321649,28.976923297910687],[-82.436639729928984,28.976857833728594],[-82.436572334409931,28.976873663725211],[-82.436534564101805,28.976951013200456],[-82.436421458320666,28.977226889047557],[-82.436395670971493,28.977292340055666],[-82.436403656713807,28.977353855818087]]]},"properties":{"OBJECTID":7,"OBJECTID_1":null,"NWICODE":"PUBH","NWISYSDESC":"PALUSTRINE","NWIDESC":"PALUSTRINE-UNCONSOLIDATED BOTTOM-PERMANENTLY FLOODED","DATESTAMP":1569283200000,"NWISYS":"P","ShapeSTAre":25431.942884510754,"ShapeSTLen":680.5042402902501,"Feature_ID":53420,"Shape_Length":680.50424027812164,"Shape_Area":25431.942884190343}},{"type":"Feature","id":8,"geometry":{"type":"Polygon","coordinates":[[[-82.435183310081939,28.977617702193545],[-82.435064242994272,28.977649435253571],[-82.434990880742873,28.97772090649568],[-82.434970992104226,28.977754616767065],[-82.434982919153029,28.977816083777643],[-82.434996774906878,28.977832075150992],[-82.435096044580078,28.97796492846803],[-82.435121743665263,28.978008611221952],[-82.435189321440831,28.978014525354837],[-82.435276654969712,28.977974847473231],[-82.435409541896163,28.977919312505758],[-82.435433391648928,28.9778200325363],[-82.435421446867096,28.977776449676966],[-82.435334123386355,28.977639542793639],[-82.435264693137853,28.977599903063219],[-82.435183310081939,28.977617702193545]]]},"properties":{"OBJECTID":8,"OBJECTID_1":null,"NWICODE":"PUBHx","NWISYSDESC":"PALUSTRINE","NWIDESC":"PALUSTRINE-UNCONSOLIDATED BOTTOM-PERMANENTLY FLOODED-EXCAVATED","DATESTAMP":1569283200000,"NWISYS":"P","ShapeSTAre":15445.96378498286,"ShapeSTLen":458.01324824007162,"Feature_ID":53435,"Shape_Length":458.01324824300059,"Shape_Area":15445.963785035996}},{"type":"Feature","id":9,"geometry":{"type":"Polygon","coordinates":[[[-82.443364002814974,28.968530613109571],[-82.443308397940328,28.968580244847821],[-82.443262905943953,28.968683449421643],[-82.443250911179788,28.968778665812483],[-82.443288558385035,28.968850050950639],[-82.443364020210495,28.968915547692369],[-82.443425528910055,28.968943412132258],[-82.443506916612264,28.968943312548902],[-82.443570377136993,28.968909641400035],[-82.443619966758249,28.968828310689464],[-82.443608014483615,28.968739006473267],[-82.443576347194139,28.968623934125262],[-82.443520753481494,28.968558490192827],[-82.443451308073577,28.968524692406515],[-82.443364002814974,28.968530613109571]]]},"properties":{"OBJECTID":9,"OBJECTID_1":null,"NWICODE":"PUSCx","NWISYSDESC":"PALUSTRINE","NWIDESC":"PALUSTRINE-UNCONSOLIDATED SHORE-SEASONALLY FLOODED-EXCAVATED","DATESTAMP":1569283200000,"NWISYS":"P","ShapeSTAre":13629.762094808437,"ShapeSTLen":427.17010918828981,"Feature_ID":53446,"Shape_Length":427.17010919070685,"Shape_Area":13629.762094952515}},{"type":"Feature","id":10,"geometry":{"type":"Polygon","coordinates":[[[-82.423561986041378,28.981780359837167],[-82.423454875177981,28.981818068610593],[-82.423123533058103,28.982004575718545],[-82.422929082979408,28.982143460616165],[-82.422585877697813,28.982320158053177],[-82.422448930409757,28.982363664887661],[-82.422310020473461,28.98238556908619],[-82.422184996152851,28.982407407895213],[-82.422079921468281,28.982451031739842],[-82.421972727223874,28.982627534346467],[-82.421960747663363,28.982776410840504],[-82.42201041223575,28.982952996848567],[-82.422071972110629,28.983068122013687],[-82.422141362616543,28.98320696421009],[-82.422458850313646,28.983873616851564],[-82.422528324573861,28.984016392492972],[-82.422571935354426,28.984137454846138],[-82.42263936386756,28.984242646148061],[-82.42274066237745,28.984286243409617],[-82.423052200061079,28.984323912755251],[-82.423177186736126,28.984351803196962],[-82.423321967445446,28.984397352851509],[-82.423482769301444,28.984413265303537],[-82.423871591362712,28.984413275488308],[-82.424028342265203,28.984369629869985],[-82.424115707425656,28.984298115915692],[-82.424177129130001,28.984171113352108],[-82.424196946304818,28.984022409588476],[-82.424185144469206,28.98394498626207],[-82.424121634600425,28.983873510528777],[-82.424052105667826,28.983817972633457],[-82.423964826958056,28.983784277064743],[-82.423627565984745,28.983691057302636],[-82.423472739564417,28.983647428971171],[-82.423403401616525,28.98356408102444],[-82.423333917866671,28.983454978876384],[-82.423298147308969,28.983322042466661],[-82.423284272358558,28.983167242601159],[-82.423379556326935,28.982865756826008],[-82.423498519822189,28.982621571366476],[-82.423597810842082,28.982512509773866],[-82.423698870946893,28.982401482785903],[-82.423818046384753,28.982280340937788],[-82.423905304693577,28.98215935102575],[-82.423948969404435,28.982071984740031],[-82.42396093062402,28.982016464144845],[-82.423931088975863,28.981907459257375],[-82.423879563742943,28.981839966149359],[-82.423780389305392,28.981790343022933],[-82.423655290946073,28.981762529253629],[-82.423561986041378,28.981780359837167]]]},"properties":{"OBJECTID":10,"OBJECTID_1":null,"NWICODE":"PUSCx","NWISYSDESC":"PALUSTRINE","NWIDESC":"PALUSTRINE-UNCONSOLIDATED SHORE-SEASONALLY FLOODED-EXCAVATED","DATESTAMP":1569283200000,"NWISYS":"P","ShapeSTAre":381375.4424994365,"ShapeSTLen":2974.9526281089702,"Feature_ID":53449,"Shape_Length":2974.9526281118983,"Shape_Area":381375.44250001758}}]}