{"type":"FeatureCollection","features":[{"type":"Feature","id":1,"geometry":{"type":"LineString","coordinates":[[-82.22459918584704,28.526522288558219],[-82.224641996437583,28.526557346051309]]},"properties":{"OBJECTID":1,"D":100,"Q__MAX_":-1,"H_W_C":120,"ID":125,"LABEL":"04P20","LGTH_SCALD":18.699999999999999,"LGTH_USER":0.10000000000000001,"MANN_N":0.012999999999999999,"STRT_NDEID":119,"START_NODE":"RM-LS04-WW","STP_NODEID":121,"STOP_NODE":"RM-LS04-PMP2","V__MAX_":-1,"Shape_Length":18.747018080351719}},{"type":"Feature","id":2,"geometry":{"type":"LineString","coordinates":[[-82.224641996437583,28.526557346051309],[-82.224717063094346,28.526519218235492]]},"properties":{"OBJECTID":2,"D":8,"Q__MAX_":-1,"H_W_C":120,"ID":126,"LABEL":"04P21","LGTH_SCALD":27.800000000000001,"LGTH_USER":30,"MANN_N":0.012999999999999999,"STRT_NDEID":121,"START_NODE":"RM-LS04-PMP2","STP_NODEID":124,"STOP_NODE":"04J5","V__MAX_":-1,"Shape_Length":27.806683012345751}},{"type":"Feature","id":3,"geometry":{"type":"LineString","coordinates":[[-82.22459918584704,28.526522288558219],[-82.224641010382769,28.526480838615619]]},"properties":{"OBJECTID":3,"D":100,"Q__MAX_":-1,"H_W_C":120,"ID":128,"LABEL":"04P10","LGTH_SCALD":20.199999999999999,"LGTH_USER":0.10000000000000001,"MANN_N":0.012999999999999999,"STRT_NDEID":119,"START_NODE":"RM-LS04-WW","STP_NODEID":120,"STOP_NODE":"RM-LS04-PMP1","V__MAX_":-1,"Shape_Length":20.186608854576168}},{"type":"Feature","id":4,"geometry":{"type":"LineString","coordinates":[[-82.224641010382769,28.526480838615619],[-82.224717063094346,28.526519218235492]]},"properties":{"OBJECTID":4,"D":8,"Q__MAX_":-1,"H_W_C":120,"ID":129,"LABEL":"04P11","LGTH_SCALD":28.100000000000001,"LGTH_USER":30,"MANN_N":0.012999999999999999,"STRT_NDEID":120,"START_NODE":"RM-LS04-PMP1","STP_NODEID":124,"STOP_NODE":"04J5","V__MAX_":-1,"Shape_Length":28.126920176164429}},{"type":"Feature","id":5,"geometry":{"type":"LineString","coordinates":[[-82.23131914750897,28.52666451541209],[-82.231259820052216,28.526664351163234]]},"properties":{"OBJECTID":5,"D":100,"Q__MAX_":-1,"H_W_C":120,"ID":137,"LABEL":"08P20","LGTH_SCALD":19.100000000000001,"LGTH_USER":0.10000000000000001,"MANN_N":0.012999999999999999,"STRT_NDEID":131,"START_NODE":"RM-LS08-WW","STP_NODEID":132,"STOP_NODE":"RM-LS08-PMP2","V__MAX_":-1,"Shape_Length":19.050695592242661}},{"type":"Feature","id":6,"geometry":{"type":"LineString","coordinates":[[-82.231259820052216,28.526664351163234],[-82.231319105258208,28.526765389219456]]},"properties":{"OBJECTID":6,"D":4,"Q__MAX_":-1,"H_W_C":120,"ID":138,"LABEL":"08P21","LGTH_SCALD":41.399999999999999,"LGTH_USER":30,"MANN_N":0.012999999999999999,"STRT_NDEID":132,"START_NODE":"RM-LS08-PMP2","STP_NODEID":136,"STOP_NODE":"08J5","V__MAX_":-1,"Shape_Length":41.375911507366695}},{"type":"Feature","id":7,"geometry":{"type":"LineString","coordinates":[[-82.23131914750897,28.52666451541209],[-82.231381287772805,28.526664166770129]]},"properties":{"OBJECTID":7,"D":100,"Q__MAX_":-1,"H_W_C":120,"ID":140,"LABEL":"08P10","LGTH_SCALD":20,"LGTH_USER":0.10000000000000001,"MANN_N":0.012999999999999999,"STRT_NDEID":131,"START_NODE":"RM-LS08-WW","STP_NODEID":133,"STOP_NODE":"RM-LS08-PMP1","V__MAX_":-1,"Shape_Length":19.954223411706206}},{"type":"Feature","id":8,"geometry":{"type":"LineString","coordinates":[[-82.231381287772805,28.526664166770129],[-82.231319105258208,28.526765389219456]]},"properties":{"OBJECTID":8,"D":4,"Q__MAX_":-1,"H_W_C":120,"ID":141,"LABEL":"08P11","LGTH_SCALD":41.899999999999999,"LGTH_USER":30,"MANN_N":0.012999999999999999,"STRT_NDEID":133,"START_NODE":"RM-LS08-PMP1","STP_NODEID":136,"STOP_NODE":"08J5","V__MAX_":-1,"Shape_Length":41.871043148303741}},{"type":"Feature","id":9,"geometry":{"type":"LineString","coordinates":[[-82.229606416102413,28.526502353629873],[-82.229668529811576,28.526495331871807],[-82.229780660278635,28.526475138008632],[-82.230154121688884,28.526349479277489],[-82.230529103785315,28.526567825896464],[-82.230660856857128,28.526608300980111],[-82.231212324322982,28.526607887631759],[-82.23131914750897,28.52666451541209]]},"properties":{"OBJECTID":9,"D":4,"Q__MAX_":-1,"H_W_C":110,"ID":153,"LABEL":"04P6","LGTH_SCALD":591.29999999999995,"LGTH_USER":0,"MANN_N":0.012999999999999999,"STRT_NDEID":151,"START_NODE":"04J6","STP_NODEID":131,"STOP_NODE":"RM-LS08-WW","V__MAX_":-1,"Shape_Length":591.29395453921086}},{"type":"Feature","id":10,"geometry":{"type":"LineString","coordinates":[[-82.233861111349938,28.528006162746685],[-82.233814949349153,28.528083679304054]]},"properties":{"OBJECTID":10,"D":100,"Q__MAX_":-1,"H_W_C":120,"ID":160,"LABEL":"09P10","LGTH_SCALD":31.800000000000001,"LGTH_USER":0.10000000000000001,"MANN_N":0.012999999999999999,"STRT_NDEID":149,"START_NODE":"RM-LS09-WW","STP_NODEID":155,"STOP_NODE":"RM-LS09-PMP1","V__MAX_":-1,"Shape_Length":31.844387963046596}},{"type":"Feature","id":11,"geometry":{"type":"LineString","coordinates":[[-82.233814949349153,28.528083679304054],[-82.233727467725714,28.527997344809943]]},"properties":{"OBJECTID":11,"D":6,"Q__MAX_":-1,"H_W_C":120,"ID":161,"LABEL":"09P11","LGTH_SCALD":42.100000000000001,"LGTH_USER":30,"MANN_N":0.012999999999999999,"STRT_NDEID":155,"START_NODE":"RM-LS09-PMP1","STP_NODEID":159,"STOP_NODE":"09J5","V__MAX_":-1,"Shape_Length":42.124142396341504}},{"type":"Feature","id":12,"geometry":{"type":"LineString","coordinates":[[-82.233861111349938,28.528006162746685],[-82.233817258964663,28.528006680211075]]},"properties":{"OBJECTID":12,"D":100,"Q__MAX_":-1,"H_W_C":120,"ID":163,"LABEL":"09P20","LGTH_SCALD":14.1,"LGTH_USER":0.10000000000000001,"MANN_N":0.012999999999999999,"STRT_NDEID":149,"START_NODE":"RM-LS09-WW","STP_NODEID":156,"STOP_NODE":"RM-LS09-PMP2","V__MAX_":-1,"Shape_Length":14.082492103198508}},{"type":"Feature","id":13,"geometry":{"type":"LineString","coordinates":[[-82.233817258964663,28.528006680211075],[-82.233727467725714,28.527997344809943]]},"properties":{"OBJECTID":13,"D":6,"Q__MAX_":-1,"H_W_C":120,"ID":164,"LABEL":"09P21","LGTH_SCALD":29,"LGTH_USER":30,"MANN_N":0.012999999999999999,"STRT_NDEID":156,"START_NODE":"RM-LS09-PMP2","STP_NODEID":159,"STOP_NODE":"09J5","V__MAX_":-1,"Shape_Length":29.031551380269768}},{"type":"Feature","id":14,"geometry":{"type":"LineString","coordinates":[[-82.233733627070777,28.524833733479301],[-82.232274648108501,28.524842515181565],[-82.232260518845479,28.522899950009062]]},"properties":{"OBJECTID":14,"D":6,"Q__MAX_":-1,"H_W_C":120,"ID":177,"LABEL":"09P6","LGTH_SCALD":1174.8,"LGTH_USER":0,"MANN_N":0.012999999999999999,"STRT_NDEID":175,"START_NODE":"09J6","STP_NODEID":174,"STOP_NODE":"11J8","V__MAX_":-1,"Shape_Length":1174.8204688948076}},{"type":"Feature","id":15,"geometry":{"type":"LineString","coordinates":[[-82.231062276966497,28.524584341592728],[-82.231006013356023,28.524600354267385]]},"properties":{"OBJECTID":15,"D":100,"Q__MAX_":-1,"H_W_C":120,"ID":178,"LABEL":"06P20","LGTH_SCALD":19,"LGTH_USER":0.10000000000000001,"MANN_N":0.012999999999999999,"STRT_NDEID":168,"START_NODE":"RM-LS06-WW","STP_NODEID":170,"STOP_NODE":"RM-LS06-PMP2","V__MAX_":-1,"Shape_Length":18.982019315319754}},{"type":"Feature","id":16,"geometry":{"type":"LineString","coordinates":[[-82.231006013356023,28.524600354267385],[-82.231059206243131,28.524693737797083]]},"properties":{"OBJECTID":16,"D":4,"Q__MAX_":-1,"H_W_C":120,"ID":179,"LABEL":"06P21","LGTH_SCALD":38,"LGTH_USER":30,"MANN_N":0.012999999999999999,"STRT_NDEID":170,"START_NODE":"RM-LS06-PMP2","STP_NODEID":173,"STOP_NODE":"06J5","V__MAX_":-1,"Shape_Length":38.007674721081358}},{"type":"Feature","id":17,"geometry":{"type":"LineString","coordinates":[[-82.231062276966497,28.524584341592728],[-82.231114957499187,28.52460315615593]]},"properties":{"OBJECTID":17,"D":100,"Q__MAX_":-1,"H_W_C":120,"ID":181,"LABEL":"06P10","LGTH_SCALD":18.199999999999999,"LGTH_USER":0.10000000000000001,"MANN_N":0.012999999999999999,"STRT_NDEID":168,"START_NODE":"RM-LS06-WW","STP_NODEID":169,"STOP_NODE":"RM-LS06-PMP1","V__MAX_":-1,"Shape_Length":18.247342342577376}},{"type":"Feature","id":18,"geometry":{"type":"LineString","coordinates":[[-82.231114957499187,28.52460315615593],[-82.231059206243131,28.524693737797083]]},"properties":{"OBJECTID":18,"D":4,"Q__MAX_":-1,"H_W_C":120,"ID":182,"LABEL":"06P11","LGTH_SCALD":37.5,"LGTH_USER":30,"MANN_N":0.012999999999999999,"STRT_NDEID":169,"START_NODE":"RM-LS06-PMP1","STP_NODEID":173,"STOP_NODE":"06J5","V__MAX_":-1,"Shape_Length":37.485765966199814}},{"type":"Feature","id":19,"geometry":{"type":"LineString","coordinates":[[-82.231059206243131,28.524693737797083],[-82.231060421602365,28.524909760796472]]},"properties":{"OBJECTID":19,"D":4,"Q__MAX_":-1,"H_W_C":120,"ID":185,"LABEL":"06P5","LGTH_SCALD":78.5,"LGTH_USER":0,"MANN_N":0.012999999999999999,"STRT_NDEID":173,"START_NODE":"06J5","STP_NODEID":184,"STOP_NODE":"06J6","V__MAX_":-1,"Shape_Length":78.544534747710301}},{"type":"Feature","id":20,"geometry":{"type":"LineString","coordinates":[[-82.233665537716661,28.52055753406761],[-82.233696625490396,28.520611880060272]]},"properties":{"OBJECTID":20,"D":100,"Q__MAX_":-1,"H_W_C":120,"ID":194,"LABEL":"05P20","LGTH_SCALD":22.100000000000001,"LGTH_USER":0.10000000000000001,"MANN_N":0.012999999999999999,"STRT_NDEID":188,"START_NODE":"RM-LS05-WW","STP_NODEID":190,"STOP_NODE":"RM-LS05-PMP2","V__MAX_":-1,"Shape_Length":22.138308046206067}},{"type":"Feature","id":21,"geometry":{"type":"LineString","coordinates":[[-82.233696625490396,28.520611880060272],[-82.233789377632746,28.520559071328734]]},"properties":{"OBJECTID":21,"D":4,"Q__MAX_":-1,"H_W_C":120,"ID":195,"LABEL":"05P21","LGTH_SCALD":35.399999999999999,"LGTH_USER":30,"MANN_N":0.012999999999999999,"STRT_NDEID":190,"START_NODE":"RM-LS05-PMP2","STP_NODEID":193,"STOP_NODE":"05J5","V__MAX_":-1,"Shape_Length":35.437678809059705}},{"type":"Feature","id":22,"geometry":{"type":"LineString","coordinates":[[-82.233665537716661,28.52055753406761],[-82.2336937394861,28.520510280861224]]},"properties":{"OBJECTID":22,"D":100,"Q__MAX_":-1,"H_W_C":120,"ID":197,"LABEL":"05P10","LGTH_SCALD":19.399999999999999,"LGTH_USER":0.10000000000000001,"MANN_N":0.012999999999999999,"STRT_NDEID":188,"START_NODE":"RM-LS05-WW","STP_NODEID":189,"STOP_NODE":"RM-LS05-PMP1","V__MAX_":-1,"Shape_Length":19.421523153840198}},{"type":"Feature","id":23,"geometry":{"type":"LineString","coordinates":[[-82.2336937394861,28.520510280861224],[-82.233789377632746,28.520559071328734]]},"properties":{"OBJECTID":23,"D":4,"Q__MAX_":-1,"H_W_C":120,"ID":198,"LABEL":"05P11","LGTH_SCALD":35.5,"LGTH_USER":30,"MANN_N":0.012999999999999999,"STRT_NDEID":189,"START_NODE":"RM-LS05-PMP1","STP_NODEID":193,"STOP_NODE":"05J5","V__MAX_":-1,"Shape_Length":35.4672786510694}},{"type":"Feature","id":24,"geometry":{"type":"LineString","coordinates":[[-82.233789377632746,28.520559071328734],[-82.233973043246309,28.520562768703968]]},"properties":{"OBJECTID":24,"D":6,"Q__MAX_":-1,"H_W_C":80,"ID":200,"LABEL":"05P6","LGTH_SCALD":59,"LGTH_USER":0,"MANN_N":0.012999999999999999,"STRT_NDEID":193,"START_NODE":"05J5","STP_NODEID":187,"STOP_NODE":"11J7","V__MAX_":-1,"Shape_Length":58.995472471934313}},{"type":"Feature","id":25,"geometry":{"type":"LineString","coordinates":[[-82.239391552701576,28.52132553542463],[-82.239271225276468,28.521280970470801]]},"properties":{"OBJECTID":25,"D":100,"Q__MAX_":-1,"H_W_C":120,"ID":209,"LABEL":"11P10","LGTH_SCALD":41.899999999999999,"LGTH_USER":0.10000000000000001,"MANN_N":0.012999999999999999,"STRT_NDEID":202,"START_NODE":"RM-LS11-WW","STP_NODEID":205,"STOP_NODE":"RM-LS11-PMP1","V__MAX_":-1,"Shape_Length":41.900064631675363}},{"type":"Feature","id":26,"geometry":{"type":"LineString","coordinates":[[-82.239271225276468,28.521280970470801],[-82.239391197017568,28.521225029712294]]},"properties":{"OBJECTID":26,"D":6,"Q__MAX_":-1,"H_W_C":120,"ID":210,"LABEL":"11P11","LGTH_SCALD":43.600000000000001,"LGTH_USER":30,"MANN_N":0.012999999999999999,"STRT_NDEID":205,"START_NODE":"RM-LS11-PMP1","STP_NODEID":208,"STOP_NODE":"11J5","V__MAX_":-1,"Shape_Length":43.56544547219}},{"type":"Feature","id":27,"geometry":{"type":"LineString","coordinates":[[-82.239391552701576,28.52132553542463],[-82.239338629741169,28.521280452447154]]},"properties":{"OBJECTID":27,"D":100,"Q__MAX_":-1,"H_W_C":120,"ID":212,"LABEL":"11P20","LGTH_SCALD":23.600000000000001,"LGTH_USER":0.10000000000000001,"MANN_N":0.012999999999999999,"STRT_NDEID":202,"START_NODE":"RM-LS11-WW","STP_NODEID":204,"STOP_NODE":"RM-LS11-PMP2","V__MAX_":-1,"Shape_Length":23.611741268697401}},{"type":"Feature","id":28,"geometry":{"type":"LineString","coordinates":[[-82.239338629741169,28.521280452447154],[-82.239391197017568,28.521225029712294]]},"properties":{"OBJECTID":28,"D":6,"Q__MAX_":-1,"H_W_C":120,"ID":213,"LABEL":"11P21","LGTH_SCALD":26.300000000000001,"LGTH_USER":30,"MANN_N":0.012999999999999999,"STRT_NDEID":204,"START_NODE":"RM-LS11-PMP2","STP_NODEID":208,"STOP_NODE":"11J5","V__MAX_":-1,"Shape_Length":26.287353448148398}},{"type":"Feature","id":29,"geometry":{"type":"LineString","coordinates":[[-82.238200452514377,28.525004642255492],[-82.238184291750372,28.525051178359259]]},"properties":{"OBJECTID":29,"D":100,"Q__MAX_":-1,"H_W_C":120,"ID":221,"LABEL":"10P10","LGTH_SCALD":17.699999999999999,"LGTH_USER":0.10000000000000001,"MANN_N":0.012999999999999999,"STRT_NDEID":215,"START_NODE":"RM-LS10-WW","STP_NODEID":216,"STOP_NODE":"RM-LS10-PMP1","V__MAX_":-1,"Shape_Length":17.697950576039215}},{"type":"Feature","id":30,"geometry":{"type":"LineString","coordinates":[[-82.238184291750372,28.525051178359259],[-82.238107879742472,28.525000978263193]]},"properties":{"OBJECTID":30,"D":4,"Q__MAX_":-1,"H_W_C":120,"ID":222,"LABEL":"10P11","LGTH_SCALD":30.600000000000001,"LGTH_USER":30,"MANN_N":0.012999999999999999,"STRT_NDEID":216,"START_NODE":"RM-LS10-PMP1","STP_NODEID":220,"STOP_NODE":"10J5","V__MAX_":-1,"Shape_Length":30.581160565994345}},{"type":"Feature","id":31,"geometry":{"type":"LineString","coordinates":[[-82.238200452514377,28.525004642255492],[-82.238188837475832,28.524951199304127]]},"properties":{"OBJECTID":31,"D":100,"Q__MAX_":-1,"H_W_C":120,"ID":224,"LABEL":"10P20","LGTH_SCALD":19.800000000000001,"LGTH_USER":0.10000000000000001,"MANN_N":0.012999999999999999,"STRT_NDEID":215,"START_NODE":"RM-LS10-WW","STP_NODEID":217,"STOP_NODE":"RM-LS10-PMP2","V__MAX_":-1,"Shape_Length":19.785990942656301}},{"type":"Feature","id":32,"geometry":{"type":"LineString","coordinates":[[-82.238188837475832,28.524951199304127],[-82.238107879742472,28.525000978263193]]},"properties":{"OBJECTID":32,"D":4,"Q__MAX_":-1,"H_W_C":120,"ID":225,"LABEL":"10P21","LGTH_SCALD":31.699999999999999,"LGTH_USER":30,"MANN_N":0.012999999999999999,"STRT_NDEID":217,"START_NODE":"RM-LS10-PMP2","STP_NODEID":220,"STOP_NODE":"10J5","V__MAX_":-1,"Shape_Length":31.676581596496831}},{"type":"Feature","id":33,"geometry":{"type":"LineString","coordinates":[[-82.238107879742472,28.525000978263193],[-82.237907119556937,28.525770904135356],[-82.237832967027515,28.526564139117948],[-82.237492645239968,28.526563453195127]]},"properties":{"OBJECTID":33,"D":4,"Q__MAX_":-1,"H_W_C":120,"ID":228,"LABEL":"10P5","LGTH_SCALD":685.89999999999998,"LGTH_USER":0,"MANN_N":0.012999999999999999,"STRT_NDEID":220,"START_NODE":"10J5","STP_NODEID":227,"STOP_NODE":"10J6","V__MAX_":-1,"Shape_Length":685.93758664134043}},{"type":"Feature","id":34,"geometry":{"type":"LineString","coordinates":[[-82.233584104248663,28.524426589455604],[-82.233562173906776,28.524460050570067]]},"properties":{"OBJECTID":34,"D":100,"Q__MAX_":-1,"H_W_C":120,"ID":237,"LABEL":"07P20","LGTH_SCALD":14.1,"LGTH_USER":0.10000000000000001,"MANN_N":0.012999999999999999,"STRT_NDEID":230,"START_NODE":"RM-LS07-WW","STP_NODEID":232,"STOP_NODE":"RM-LS07-PMP2","V__MAX_":-1,"Shape_Length":14.05724585874122}},{"type":"Feature","id":35,"geometry":{"type":"LineString","coordinates":[[-82.233562173906776,28.524460050570067],[-82.233644786226122,28.524473820828309]]},"properties":{"OBJECTID":35,"D":4,"Q__MAX_":-1,"H_W_C":120,"ID":238,"LABEL":"07P21","LGTH_SCALD":27,"LGTH_USER":30,"MANN_N":0.012999999999999999,"STRT_NDEID":232,"START_NODE":"RM-LS07-PMP2","STP_NODEID":236,"STOP_NODE":"07J5","V__MAX_":-1,"Shape_Length":26.996472914709848}},{"type":"Feature","id":36,"geometry":{"type":"LineString","coordinates":[[-82.233584104248663,28.524426589455604],[-82.233627892683572,28.524400122182879]]},"properties":{"OBJECTID":36,"D":100,"Q__MAX_":-1,"H_W_C":120,"ID":240,"LABEL":"07P10","LGTH_SCALD":17,"LGTH_USER":0.10000000000000001,"MANN_N":0.012999999999999999,"STRT_NDEID":230,"START_NODE":"RM-LS07-WW","STP_NODEID":231,"STOP_NODE":"RM-LS07-PMP1","V__MAX_":-1,"Shape_Length":17.038862091210177}},{"type":"Feature","id":37,"geometry":{"type":"LineString","coordinates":[[-82.233627892683572,28.524400122182879],[-82.233644786226122,28.524473820828309]]},"properties":{"OBJECTID":37,"D":4,"Q__MAX_":-1,"H_W_C":120,"ID":241,"LABEL":"07P11","LGTH_SCALD":27.300000000000001,"LGTH_USER":30,"MANN_N":0.012999999999999999,"STRT_NDEID":231,"START_NODE":"RM-LS07-PMP1","STP_NODEID":236,"STOP_NODE":"07J5","V__MAX_":-1,"Shape_Length":27.339615878352578}},{"type":"Feature","id":38,"geometry":{"type":"LineString","coordinates":[[-82.233644786226122,28.524473820828309],[-82.233647551610417,28.52480928451515]]},"properties":{"OBJECTID":38,"D":4,"Q__MAX_":-1,"H_W_C":120,"ID":244,"LABEL":"07P5","LGTH_SCALD":122,"LGTH_USER":0,"MANN_N":0.012999999999999999,"STRT_NDEID":236,"START_NODE":"07J5","STP_NODEID":243,"STOP_NODE":"07J6","V__MAX_":-1,"Shape_Length":121.9741205372254}},{"type":"Feature","id":39,"geometry":{"type":"LineString","coordinates":[[-82.261078079533078,28.52232132947961],[-82.261026018336153,28.522366474644318]]},"properties":{"OBJECTID":39,"D":100,"Q__MAX_":-1,"H_W_C":120,"ID":253,"LABEL":"17P10","LGTH_SCALD":23.399999999999999,"LGTH_USER":0.10000000000000001,"MANN_N":0.012999999999999999,"STRT_NDEID":247,"START_NODE":"RM-LS17-WW","STP_NODEID":249,"STOP_NODE":"RM-LS17-PMP1","V__MAX_":-1,"Shape_Length":23.429095299274714}},{"type":"Feature","id":40,"geometry":{"type":"LineString","coordinates":[[-82.261026018336153,28.522366474644318],[-82.260950347822487,28.522318513331619]]},"properties":{"OBJECTID":40,"D":4,"Q__MAX_":-1,"H_W_C":120,"ID":254,"LABEL":"17P11","LGTH_SCALD":29.899999999999999,"LGTH_USER":30,"MANN_N":0.012999999999999999,"STRT_NDEID":249,"START_NODE":"RM-LS17-PMP1","STP_NODEID":252,"STOP_NODE":"17J5","V__MAX_":-1,"Shape_Length":29.909187828392572}},{"type":"Feature","id":41,"geometry":{"type":"LineString","coordinates":[[-82.261078079533078,28.52232132947961],[-82.261025042848175,28.522265629658715]]},"properties":{"OBJECTID":41,"D":100,"Q__MAX_":-1,"H_W_C":120,"ID":256,"LABEL":"17P20","LGTH_SCALD":26.5,"LGTH_USER":0.10000000000000001,"MANN_N":0.012999999999999999,"STRT_NDEID":247,"START_NODE":"RM-LS17-WW","STP_NODEID":248,"STOP_NODE":"RM-LS17-PMP2","V__MAX_":-1,"Shape_Length":26.461358215869851}},{"type":"Feature","id":42,"geometry":{"type":"LineString","coordinates":[[-82.261025042848175,28.522265629658715],[-82.260950347822487,28.522318513331619]]},"properties":{"OBJECTID":42,"D":4,"Q__MAX_":-1,"H_W_C":120,"ID":257,"LABEL":"17P21","LGTH_SCALD":30.699999999999999,"LGTH_USER":30,"MANN_N":0.012999999999999999,"STRT_NDEID":248,"START_NODE":"RM-LS17-PMP2","STP_NODEID":252,"STOP_NODE":"17J5","V__MAX_":-1,"Shape_Length":30.741771945020147}},{"type":"Feature","id":43,"geometry":{"type":"LineString","coordinates":[[-82.260950347822487,28.522318513331619],[-82.260979694349601,28.522409121968654],[-82.26097564486372,28.522965751752402]]},"properties":{"OBJECTID":43,"D":4,"Q__MAX_":-1,"H_W_C":100,"ID":259,"LABEL":"17P5","LGTH_SCALD":236.69999999999999,"LGTH_USER":0,"MANN_N":0.012999999999999999,"STRT_NDEID":252,"START_NODE":"17J5","STP_NODEID":246,"STOP_NODE":"18J9","V__MAX_":-1,"Shape_Length":236.65458141849163}},{"type":"Feature","id":44,"geometry":{"type":"LineString","coordinates":[[-82.227941694761981,28.52127480908381],[-82.227916099513479,28.521327571629993]]},"properties":{"OBJECTID":44,"D":100,"Q__MAX_":-1,"H_W_C":120,"ID":318,"LABEL":"03P10","LGTH_SCALD":20.899999999999999,"LGTH_USER":0,"MANN_N":0.012999999999999999,"STRT_NDEID":118,"START_NODE":"RM-LS03-WW","STP_NODEID":313,"STOP_NODE":"RM-LS03-PMP1","V__MAX_":-1,"Shape_Length":20.870488890277763}},{"type":"Feature","id":45,"geometry":{"type":"LineString","coordinates":[[-82.227916099513479,28.521327571629993],[-82.227814289947332,28.521282726500292]]},"properties":{"OBJECTID":45,"D":4,"Q__MAX_":-1,"H_W_C":120,"ID":319,"LABEL":"03P11","LGTH_SCALD":36.5,"LGTH_USER":30,"MANN_N":0.012999999999999999,"STRT_NDEID":313,"START_NODE":"RM-LS03-PMP1","STP_NODEID":317,"STOP_NODE":"03J5","V__MAX_":-1,"Shape_Length":36.534009067962891}},{"type":"Feature","id":46,"geometry":{"type":"LineString","coordinates":[[-82.227941694761981,28.52127480908381],[-82.22791599883216,28.521218930782901]]},"properties":{"OBJECTID":46,"D":100,"Q__MAX_":-1,"H_W_C":120,"ID":321,"LABEL":"03P20","LGTH_SCALD":21.899999999999999,"LGTH_USER":0.10000000000000001,"MANN_N":0.012999999999999999,"STRT_NDEID":118,"START_NODE":"RM-LS03-WW","STP_NODEID":314,"STOP_NODE":"RM-LS03-PMP2","V__MAX_":-1,"Shape_Length":21.928480303901814}},{"type":"Feature","id":47,"geometry":{"type":"LineString","coordinates":[[-82.22791599883216,28.521218930782901],[-82.227814289947332,28.521282726500292]]},"properties":{"OBJECTID":47,"D":4,"Q__MAX_":-1,"H_W_C":120,"ID":322,"LABEL":"03P21","LGTH_SCALD":40.100000000000001,"LGTH_USER":30,"MANN_N":0.012999999999999999,"STRT_NDEID":314,"START_NODE":"RM-LS03-PMP2","STP_NODEID":317,"STOP_NODE":"03J5","V__MAX_":-1,"Shape_Length":40.059824212455347}},{"type":"Feature","id":48,"geometry":{"type":"LineString","coordinates":[[-82.227814289947332,28.521282726500292],[-82.227800587304102,28.521334804322333],[-82.2278727832025,28.521457675634487],[-82.227839969865073,28.522065897642349]]},"properties":{"OBJECTID":48,"D":4,"Q__MAX_":-1,"H_W_C":100,"ID":325,"LABEL":"03P5","LGTH_SCALD":291.19999999999999,"LGTH_USER":0,"MANN_N":0.012999999999999999,"STRT_NDEID":317,"START_NODE":"03J5","STP_NODEID":324,"STOP_NODE":"03J6","V__MAX_":-1,"Shape_Length":291.16505788416021}},{"type":"Feature","id":49,"geometry":{"type":"LineString","coordinates":[[-82.231319105258208,28.526765389219456],[-82.231315899917348,28.526840645864855],[-82.231350622782159,28.527198950567396],[-82.231437073141976,28.527291558018394],[-82.232291737628884,28.527294015165648],[-82.232617817189919,28.527305552722027]]},"properties":{"OBJECTID":49,"D":4,"Q__MAX_":-1,"H_W_C":100,"ID":358,"LABEL":"08P5","LGTH_SCALD":581,"LGTH_USER":0,"MANN_N":0.012999999999999999,"STRT_NDEID":136,"START_NODE":"08J5","STP_NODEID":357,"STOP_NODE":"08J6","V__MAX_":-1,"Shape_Length":581.00380793581246}},{"type":"Feature","id":50,"geometry":{"type":"LineString","coordinates":[[-82.231060421602365,28.524909760796472],[-82.232882633699418,28.524914936595636]]},"properties":{"OBJECTID":50,"D":4,"Q__MAX_":-1,"H_W_C":120,"ID":361,"LABEL":"06P6","LGTH_SCALD":585.10000000000002,"LGTH_USER":0,"MANN_N":0.012999999999999999,"STRT_NDEID":184,"START_NODE":"06J6","STP_NODEID":360,"STOP_NODE":"06J7","V__MAX_":-1,"Shape_Length":585.14209341458729}},{"type":"Feature","id":51,"geometry":{"type":"LineString","coordinates":[[-82.232260518845479,28.522899950009062],[-82.227833054456156,28.522894198658932]]},"properties":{"OBJECTID":51,"D":12,"Q__MAX_":-1,"H_W_C":110,"ID":363,"LABEL":"11P8","LGTH_SCALD":1421.8,"LGTH_USER":0,"MANN_N":0.012999999999999999,"STRT_NDEID":174,"START_NODE":"11J8","STP_NODEID":117,"STOP_NODE":"11J9","V__MAX_":-1,"Shape_Length":1421.7522686609946}},{"type":"Feature","id":52,"geometry":{"type":"LineString","coordinates":[[-82.238603407715004,28.521131714247097],[-82.23787269007245,28.521257712440782],[-82.237835355197944,28.520578690003216],[-82.236585928891998,28.520458491723858],[-82.235768948325202,28.520249559274276],[-82.235657802972028,28.520592784521725],[-82.233973043246309,28.520562768703968]]},"properties":{"OBJECTID":52,"D":8,"Q__MAX_":-1,"H_W_C":60,"ID":366,"LABEL":"11P6","LGTH_SCALD":1833.9000000000001,"LGTH_USER":0,"MANN_N":0.012999999999999999,"STRT_NDEID":260,"START_NODE":"11J6","STP_NODEID":187,"STOP_NODE":"11J7","V__MAX_":-1,"Shape_Length":1833.9199236494892}},{"type":"Feature","id":53,"geometry":{"type":"LineString","coordinates":[[-82.239546347965856,28.522941173386293],[-82.239573244237093,28.522904605207888],[-82.239588180364692,28.522832182552953],[-82.239586975317096,28.522362659590854],[-82.239520989688828,28.522293733429201],[-82.239532787801437,28.521363414237342],[-82.239512796794372,28.52131418949326],[-82.239472433555704,28.521305587059036]]},"properties":{"OBJECTID":53,"D":8,"Q__MAX_":-1,"H_W_C":100,"ID":369,"LABEL":"18P11","LGTH_SCALD":616.79999999999995,"LGTH_USER":0,"MANN_N":0.012999999999999999,"STRT_NDEID":368,"START_NODE":"Clare #39","STP_NODEID":201,"STOP_NODE":"11MH0","V__MAX_":-1,"Shape_Length":616.77492080915499}},{"type":"Feature","id":54,"geometry":{"type":"LineString","coordinates":[[-82.26097564486372,28.522965751752402],[-82.255863032337857,28.52294711284171]]},"properties":{"OBJECTID":54,"D":8,"Q__MAX_":-1,"H_W_C":100,"ID":370,"LABEL":"18P9","LGTH_SCALD":1641.8,"LGTH_USER":0,"MANN_N":0.012999999999999999,"STRT_NDEID":246,"START_NODE":"18J9","STP_NODEID":692,"STOP_NODE":"AV-2","V__MAX_":-1,"Shape_Length":1641.781777969514}},{"type":"Feature","id":55,"geometry":{"type":"LineString","coordinates":[[-82.255863032337857,28.52294711284171],[-82.239831116982955,28.522956154213425],[-82.239546347965856,28.522941173386293]]},"properties":{"OBJECTID":55,"D":8,"Q__MAX_":-1,"H_W_C":100,"ID":371,"LABEL":"18P10","LGTH_SCALD":5239.8000000000002,"LGTH_USER":0,"MANN_N":0.012999999999999999,"STRT_NDEID":692,"START_NODE":"AV-2","STP_NODEID":368,"STOP_NODE":"Clare #39","V__MAX_":-1,"Shape_Length":5239.7917544292877}},{"type":"Feature","id":56,"geometry":{"type":"LineString","coordinates":[[-82.261443951668937,28.522967035355844],[-82.26097564486372,28.522965751752402]]},"properties":{"OBJECTID":56,"D":8,"Q__MAX_":-1,"H_W_C":100,"ID":373,"LABEL":"18P8","LGTH_SCALD":150.40000000000001,"LGTH_USER":0,"MANN_N":0.012999999999999999,"STRT_NDEID":372,"START_NODE":"18J8","STP_NODEID":246,"STOP_NODE":"18J9","V__MAX_":-1,"Shape_Length":150.38393524942114}},{"type":"Feature","id":57,"geometry":{"type":"LineString","coordinates":[[-82.267682022558944,28.522978374111297],[-82.261443951668937,28.522967035355844]]},"properties":{"OBJECTID":57,"D":8,"Q__MAX_":-1,"H_W_C":100,"ID":375,"LABEL":"18P7","LGTH_SCALD":8020.3999999999996,"LGTH_USER":0,"MANN_N":0.012999999999999999,"STRT_NDEID":374,"START_NODE":"18J7","STP_NODEID":372,"STOP_NODE":"18J8","V__MAX_":-1,"Shape_Length":2003.1809219010963}},{"type":"Feature","id":58,"geometry":{"type":"LineString","coordinates":[[-82.233727467725714,28.527997344809943],[-82.23373909158785,28.527846420656445]]},"properties":{"OBJECTID":58,"D":6,"Q__MAX_":-1,"H_W_C":120,"ID":396,"LABEL":"09P5","LGTH_SCALD":55,"LGTH_USER":0,"MANN_N":0.012999999999999999,"STRT_NDEID":159,"START_NODE":"09J5","STP_NODEID":395,"STOP_NODE":"09J5A","V__MAX_":-1,"Shape_Length":55.001173605250955}},{"type":"Feature","id":59,"geometry":{"type":"LineString","coordinates":[[-82.23373909158785,28.527846420656445],[-82.233733627070777,28.524833733479301]]},"properties":{"OBJECTID":59,"D":6,"Q__MAX_":-1,"H_W_C":120,"ID":397,"LABEL":"09P5A","LGTH_SCALD":1095.4000000000001,"LGTH_USER":0,"MANN_N":0.012999999999999999,"STRT_NDEID":395,"START_NODE":"09J5A","STP_NODEID":175,"STOP_NODE":"09J6","V__MAX_":-1,"Shape_Length":1095.3814373968814}},{"type":"Feature","id":60,"geometry":{"type":"LineString","coordinates":[[-82.227839969865073,28.522065897642349],[-82.227833659126759,28.522850736630907]]},"properties":{"OBJECTID":60,"D":4,"Q__MAX_":-1,"H_W_C":100,"ID":403,"LABEL":"03P6","LGTH_SCALD":285.39999999999998,"LGTH_USER":0,"MANN_N":0.012999999999999999,"STRT_NDEID":324,"START_NODE":"03J6","STP_NODEID":399,"STOP_NODE":"03J7","V__MAX_":-1,"Shape_Length":285.36579354252166}},{"type":"Feature","id":61,"geometry":{"type":"LineString","coordinates":[[-82.227833659126759,28.522850736630907],[-82.223737854263689,28.522849311330763]]},"properties":{"OBJECTID":61,"D":8,"Q__MAX_":-1,"H_W_C":110,"ID":404,"LABEL":"03P7","LGTH_SCALD":2449.6999999999998,"LGTH_USER":0,"MANN_N":0.012999999999999999,"STRT_NDEID":399,"START_NODE":"03J7","STP_NODEID":400,"STOP_NODE":"03J8","V__MAX_":-1,"Shape_Length":1315.2483556938166}},{"type":"Feature","id":62,"geometry":{"type":"LineString","coordinates":[[-82.243344736718186,28.51155685378092],[-82.241892597429015,28.511544843294622],[-82.240020858568528,28.51495676734045],[-82.240011757910835,28.515188050862204],[-82.240419081503333,28.515181912197924]]},"properties":{"OBJECTID":62,"D":6,"Q__MAX_":-1,"H_W_C":130,"ID":723,"LABEL":"P-183","LGTH_SCALD":2059.9000000000001,"LGTH_USER":0,"MANN_N":0.01,"STRT_NDEID":720,"START_NODE":"J-102","STP_NODEID":722,"STOP_NODE":"Melton #36","V__MAX_":-1,"Shape_Length":2059.8544193373414}},{"type":"Feature","id":63,"geometry":{"type":"LineString","coordinates":[[-82.239391197017568,28.521225029712294],[-82.239392704345406,28.521187118006836],[-82.239361696423174,28.521080388135928],[-82.239042451859959,28.520681440810012],[-82.238951811926583,28.520775241498662]]},"properties":{"OBJECTID":63,"D":8,"Q__MAX_":-1,"H_W_C":60,"ID":725,"LABEL":"11P5(1)","LGTH_SCALD":276.30000000000001,"LGTH_USER":0,"MANN_N":0.012999999999999999,"STRT_NDEID":208,"START_NODE":"11J5","STP_NODEID":724,"STOP_NODE":"J-104","V__MAX_":-1,"Shape_Length":276.31670704883851}},{"type":"Feature","id":64,"geometry":{"type":"LineString","coordinates":[[-82.238951811926583,28.520775241498662],[-82.238603407715004,28.521131714247097]]},"properties":{"OBJECTID":64,"D":8,"Q__MAX_":-1,"H_W_C":60,"ID":726,"LABEL":"11P5(2)","LGTH_SCALD":171.19999999999999,"LGTH_USER":0,"MANN_N":0.012999999999999999,"STRT_NDEID":724,"START_NODE":"J-104","STP_NODEID":260,"STOP_NODE":"11J6","V__MAX_":-1,"Shape_Length":171.21972298576901}},{"type":"Feature","id":65,"geometry":{"type":"LineString","coordinates":[[-82.240419081503333,28.515181912197924],[-82.240197776023678,28.516316473798334],[-82.24017144618459,28.51734673861268],[-82.240019061743581,28.517894412034241],[-82.239802888145533,28.518293710083846],[-82.239249544360177,28.518914204566006],[-82.238967840756047,28.519475213186368],[-82.238922007843627,28.519923936623922],[-82.238938199925869,28.520383480161314],[-82.239006580091285,28.520598296401268],[-82.238951811926583,28.520775241498662]]},"properties":{"OBJECTID":65,"D":6,"Q__MAX_":-1,"H_W_C":130,"ID":727,"LABEL":"P-184","LGTH_SCALD":2148.4000000000001,"LGTH_USER":0,"MANN_N":0.01,"STRT_NDEID":722,"START_NODE":"Melton #36","STP_NODEID":724,"STOP_NODE":"J-104","V__MAX_":-1,"Shape_Length":2148.383923214094}},{"type":"Feature","id":66,"geometry":{"type":"LineString","coordinates":[[-82.243353291855897,28.511321747304134],[-82.243311094256939,28.51136088447279]]},"properties":{"OBJECTID":66,"D":100,"Q__MAX_":-1,"H_W_C":130,"ID":728,"LABEL":"P-185","LGTH_SCALD":19.699999999999999,"LGTH_USER":0.10000000000000001,"MANN_N":0.01,"STRT_NDEID":713,"START_NODE":"Trilby Crossing-WW (Under Construction)","STP_NODEID":714,"STOP_NODE":"TC-PMP1","V__MAX_":-1,"Shape_Length":19.650569206236622}},{"type":"Feature","id":67,"geometry":{"type":"LineString","coordinates":[[-82.243311094256939,28.51136088447279],[-82.24334518902576,28.511487755157827]]},"properties":{"OBJECTID":67,"D":6,"Q__MAX_":-1,"H_W_C":130,"ID":729,"LABEL":"P-186","LGTH_SCALD":47.399999999999999,"LGTH_USER":30,"MANN_N":0.01,"STRT_NDEID":714,"START_NODE":"TC-PMP1","STP_NODEID":718,"STOP_NODE":"J-101","V__MAX_":-1,"Shape_Length":47.410493269489031}},{"type":"Feature","id":68,"geometry":{"type":"LineString","coordinates":[[-82.24334518902576,28.511487755157827],[-82.243344736718186,28.51155685378092]]},"properties":{"OBJECTID":68,"D":6,"Q__MAX_":-1,"H_W_C":130,"ID":731,"LABEL":"P-188","LGTH_SCALD":25.100000000000001,"LGTH_USER":0,"MANN_N":0.01,"STRT_NDEID":718,"START_NODE":"J-101","STP_NODEID":720,"STOP_NODE":"J-102","V__MAX_":-1,"Shape_Length":25.123880648748077}},{"type":"Feature","id":69,"geometry":{"type":"LineString","coordinates":[[-82.243353291855897,28.511321747304134],[-82.243395586056849,28.511362593407682]]},"properties":{"OBJECTID":69,"D":100,"Q__MAX_":-1,"H_W_C":130,"ID":734,"LABEL":"P-189","LGTH_SCALD":20.100000000000001,"LGTH_USER":0.10000000000000001,"MANN_N":0.01,"STRT_NDEID":713,"START_NODE":"Trilby Crossing-WW (Under Construction)","STP_NODEID":733,"STOP_NODE":"TC-PMP2","V__MAX_":-1,"Shape_Length":20.12600704901736}},{"type":"Feature","id":70,"geometry":{"type":"LineString","coordinates":[[-82.243395586056849,28.511362593407682],[-82.24334518902576,28.511487755157827]]},"properties":{"OBJECTID":70,"D":6,"Q__MAX_":-1,"H_W_C":130,"ID":736,"LABEL":"P-190","LGTH_SCALD":48.299999999999997,"LGTH_USER":30,"MANN_N":0.01,"STRT_NDEID":733,"START_NODE":"TC-PMP2","STP_NODEID":718,"STOP_NODE":"J-101","V__MAX_":-1,"Shape_Length":48.299939024245305}},{"type":"Feature","id":71,"geometry":{"type":"LineString","coordinates":[[-82.227833054456156,28.522894198658932],[-82.224257987977268,28.522891641305083]]},"properties":{"OBJECTID":71,"D":12,"Q__MAX_":-1,"H_W_C":110,"ID":741,"LABEL":"11P9(1)","LGTH_SCALD":1148,"LGTH_USER":0,"MANN_N":0.012999999999999999,"STRT_NDEID":117,"START_NODE":"11J9","STP_NODEID":740,"STOP_NODE":"J-107","V__MAX_":-1,"Shape_Length":1148.0282396410964}},{"type":"Feature","id":72,"geometry":{"type":"LineString","coordinates":[[-82.224257987977268,28.522891641305083],[-82.223741864703555,28.522891321450178]]},"properties":{"OBJECTID":72,"D":12,"Q__MAX_":-1,"H_W_C":110,"ID":742,"LABEL":"11P9(2)","LGTH_SCALD":1299,"LGTH_USER":0,"MANN_N":0.012999999999999999,"STRT_NDEID":740,"START_NODE":"J-107","STP_NODEID":116,"STOP_NODE":"12J9","V__MAX_":-1,"Shape_Length":165.73789380241593}},{"type":"Feature","id":73,"geometry":{"type":"LineString","coordinates":[[-82.224254539201041,28.525138972842282],[-82.224257987977268,28.522891641305083]]},"properties":{"OBJECTID":73,"D":8,"Q__MAX_":-1,"H_W_C":130,"ID":743,"LABEL":"P-193","LGTH_SCALD":817.10000000000002,"LGTH_USER":0,"MANN_N":0.01,"STRT_NDEID":738,"START_NODE":"J-106","STP_NODEID":740,"STOP_NODE":"J-107","V__MAX_":-1,"Shape_Length":817.10516285424058}},{"type":"Feature","id":74,"geometry":{"type":"LineString","coordinates":[[-82.224717063094346,28.526519218235492],[-82.224636383670429,28.526827967107238],[-82.224616677242778,28.526849201363344],[-82.224456585986616,28.526842166997703]]},"properties":{"OBJECTID":74,"D":8,"Q__MAX_":-1,"H_W_C":130,"ID":746,"LABEL":"P-192(1)","LGTH_SCALD":251.59999999999999,"LGTH_USER":0,"MANN_N":0.01,"STRT_NDEID":124,"START_NODE":"04J5","STP_NODEID":745,"STOP_NODE":"J-108","V__MAX_":-1,"Shape_Length":176.66100610257854}},{"type":"Feature","id":75,"geometry":{"type":"LineString","coordinates":[[-82.224257592952981,28.526190542881483],[-82.224254539201041,28.525138972842282]]},"properties":{"OBJECTID":75,"D":8,"Q__MAX_":-1,"H_W_C":130,"ID":747,"LABEL":"P-192(2)","LGTH_SCALD":601.70000000000005,"LGTH_USER":0,"MANN_N":0.01,"STRT_NDEID":745,"START_NODE":"J-108","STP_NODEID":738,"STOP_NODE":"J-106","V__MAX_":-1,"Shape_Length":382.34036202013175}},{"type":"Feature","id":76,"geometry":{"type":"LineString","coordinates":[[-82.232617817189919,28.527305552722027],[-82.233612415094072,28.527311927208828],[-82.233623374081319,28.527315853234743]]},"properties":{"OBJECTID":76,"D":4,"Q__MAX_":-1,"H_W_C":100,"ID":824,"LABEL":"P-199","LGTH_SCALD":323.19999999999999,"LGTH_USER":0,"MANN_N":0.012,"STRT_NDEID":357,"START_NODE":"08J6","STP_NODEID":777,"STOP_NODE":"RM-LS09-MH042","V__MAX_":-1,"Shape_Length":323.17871238976107}},{"type":"Feature","id":77,"geometry":{"type":"LineString","coordinates":[[-82.233647551610417,28.52480928451515],[-82.233650665584307,28.525284262082096]]},"properties":{"OBJECTID":77,"D":4,"Q__MAX_":-1,"H_W_C":120,"ID":826,"LABEL":"P-200","LGTH_SCALD":172.69999999999999,"LGTH_USER":0,"MANN_N":0.012,"STRT_NDEID":243,"START_NODE":"07J6","STP_NODEID":785,"STOP_NODE":"RM-LS09-MH009","V__MAX_":-1,"Shape_Length":172.69949773549908}},{"type":"Feature","id":78,"geometry":{"type":"LineString","coordinates":[[-82.232882633699418,28.524914936595636],[-82.233633447854871,28.524918703313869],[-82.233650665584307,28.525284262082096]]},"properties":{"OBJECTID":78,"D":4,"Q__MAX_":-1,"H_W_C":120,"ID":827,"LABEL":"P-201","LGTH_SCALD":374.10000000000002,"LGTH_USER":0,"MANN_N":0.012,"STRT_NDEID":360,"START_NODE":"06J7","STP_NODEID":785,"STOP_NODE":"RM-LS09-MH009","V__MAX_":-1,"Shape_Length":374.12942872015128}},{"type":"Feature","id":79,"geometry":{"type":"LineString","coordinates":[[-82.237492645239968,28.526563453195127],[-82.23659931710722,28.527591162629374],[-82.235589985297381,28.527603503838634],[-82.235330302275202,28.527300009565202]]},"properties":{"OBJECTID":79,"D":4,"Q__MAX_":-1,"H_W_C":120,"ID":828,"LABEL":"P-202","LGTH_SCALD":933.5,"LGTH_USER":0,"MANN_N":0.012,"STRT_NDEID":227,"START_NODE":"10J6","STP_NODEID":780,"STOP_NODE":"RM-LS09-MH012","V__MAX_":-1,"Shape_Length":933.51835157365781}},{"type":"Feature","id":80,"geometry":{"type":"LineString","coordinates":[[-82.224583020504625,28.526408073666598],[-82.224617292025414,28.52637786563583]]},"properties":{"OBJECTID":80,"D":100,"Q__MAX_":-1,"H_W_C":120,"ID":867,"LABEL":"P-208","LGTH_SCALD":15.5,"LGTH_USER":0.10000000000000001,"MANN_N":0.012,"STRT_NDEID":865,"START_NODE":"RM-LS04-WW (Previous)","STP_NODEID":866,"STOP_NODE":"RM-LS04-PMP1 (Previous)","V__MAX_":-1,"Shape_Length":15.548036897605334}},{"type":"Feature","id":81,"geometry":{"type":"LineString","coordinates":[[-82.224617292025414,28.52637786563583],[-82.224677232035773,28.526376198148746]]},"properties":{"OBJECTID":81,"D":4,"Q__MAX_":-1,"H_W_C":120,"ID":869,"LABEL":"P-209","LGTH_SCALD":19.300000000000001,"LGTH_USER":30,"MANN_N":0.012,"STRT_NDEID":866,"START_NODE":"RM-LS04-PMP1 (Previous)","STP_NODEID":868,"STOP_NODE":"J-112","V__MAX_":-1,"Shape_Length":19.256890356922419}},{"type":"Feature","id":82,"geometry":{"type":"LineString","coordinates":[[-82.224583020504625,28.526408073666598],[-82.22461429045029,28.526429638402202]]},"properties":{"OBJECTID":82,"D":100,"Q__MAX_":-1,"H_W_C":120,"ID":877,"LABEL":"P-214","LGTH_SCALD":12.699999999999999,"LGTH_USER":0.10000000000000001,"MANN_N":0.012,"STRT_NDEID":865,"START_NODE":"RM-LS04-WW (Previous)","STP_NODEID":876,"STOP_NODE":"RM-LS04-PMP2 (Previous)","V__MAX_":-1,"Shape_Length":12.739704466014439}},{"type":"Feature","id":83,"geometry":{"type":"LineString","coordinates":[[-82.22461429045029,28.526429638402202],[-82.224677232035773,28.526376198148746]]},"properties":{"OBJECTID":83,"D":4,"Q__MAX_":-1,"H_W_C":120,"ID":879,"LABEL":"P-215","LGTH_SCALD":28,"LGTH_USER":30,"MANN_N":0.012,"STRT_NDEID":876,"START_NODE":"RM-LS04-PMP2 (Previous)","STP_NODEID":868,"STOP_NODE":"J-112","V__MAX_":-1,"Shape_Length":28.036180570978246}},{"type":"Feature","id":84,"geometry":{"type":"LineString","coordinates":[[-82.224731216960294,28.526518597658725],[-82.224736656488361,28.526537076258705],[-82.225017941621061,28.526485997212252],[-82.229606416102413,28.526502353629873]]},"properties":{"OBJECTID":84,"D":4,"Q__MAX_":-1,"H_W_C":110,"ID":884,"LABEL":"04P5(2)","LGTH_SCALD":1572.5999999999999,"LGTH_USER":0,"MANN_N":0.012999999999999999,"STRT_NDEID":882,"START_NODE":"J-116","STP_NODEID":151,"STOP_NODE":"04J6","V__MAX_":-1,"Shape_Length":1572.5710661157375}},{"type":"Feature","id":85,"geometry":{"type":"LineString","coordinates":[[-82.224677232035773,28.526376198148746],[-82.224731216960294,28.526518597658725]]},"properties":{"OBJECTID":85,"D":4,"Q__MAX_":-1,"H_W_C":100,"ID":886,"LABEL":"P-218","LGTH_SCALD":54.600000000000001,"LGTH_USER":4,"MANN_N":0.012,"STRT_NDEID":868,"START_NODE":"J-112","STP_NODEID":882,"STOP_NODE":"J-116","V__MAX_":-1,"Shape_Length":54.599847127126239}},{"type":"Feature","id":86,"geometry":{"type":"LineString","coordinates":[[-82.232260518845479,28.522899950009062],[-82.232182482516365,28.522798844399944],[-82.227833659126759,28.522850736630907]]},"properties":{"OBJECTID":86,"D":8,"Q__MAX_":-1,"H_W_C":110,"ID":912,"LABEL":"P-221","LGTH_SCALD":1441.0999999999999,"LGTH_USER":0,"MANN_N":0.01,"STRT_NDEID":174,"START_NODE":"11J8","STP_NODEID":399,"STOP_NODE":"03J7","V__MAX_":-1,"Shape_Length":1441.1154205623941}},{"type":"Feature","id":87,"geometry":{"type":"LineString","coordinates":[[-82.233973043246309,28.520562768703968],[-82.233989872892408,28.520609861606189],[-82.233981962745275,28.52084355589508],[-82.233665288393951,28.520878265175295]]},"properties":{"OBJECTID":87,"D":8,"Q__MAX_":-1,"H_W_C":80,"ID":928,"LABEL":"11P7(1)","LGTH_SCALD":205.40000000000001,"LGTH_USER":0,"MANN_N":0.012999999999999999,"STRT_NDEID":187,"START_NODE":"11J7","STP_NODEID":927,"STOP_NODE":"PS just N of RM-LS05","V__MAX_":-1,"Shape_Length":205.43444560079337}},{"type":"Feature","id":88,"geometry":{"type":"LineString","coordinates":[[-82.233665288393951,28.520878265175295],[-82.233665218018075,28.520878334495698],[-82.233687362102387,28.520985462062715],[-82.233698449128937,28.522136815941376],[-82.23357431992801,28.522670321903767],[-82.233549744436203,28.522904021890437],[-82.232260518845479,28.522899950009062]]},"properties":{"OBJECTID":88,"D":8,"Q__MAX_":-1,"H_W_C":80,"ID":929,"LABEL":"11P7(2)","LGTH_SCALD":1155.5999999999999,"LGTH_USER":0,"MANN_N":0.012999999999999999,"STRT_NDEID":927,"START_NODE":"PS just N of RM-LS05","STP_NODEID":174,"STOP_NODE":"11J8","V__MAX_":-1,"Shape_Length":1155.6286960689758}}]}