{"type":"FeatureCollection","features":[{"type":"Feature","id":1,"geometry":{"type":"Polygon","coordinates":[[[-82.361031510952486,28.555248229792035],[-82.361039554348963,28.555209211152381],[-82.362235147694264,28.55537402981642],[-82.363792350909378,28.554896244644098],[-82.363710314084102,28.554688484751551],[-82.364776792936354,28.554360193129128],[-82.364713882618801,28.554200878351811],[-82.364563176859278,28.55381922231259],[-82.365340765737642,28.553581755853372],[-82.365594581541572,28.553383755292991],[-82.365733988334483,28.553083226873465],[-82.36572787930541,28.552918406829846],[-82.365927654774652,28.552549794080448],[-82.365720977267998,28.552075925055085],[-82.365743094449854,28.551985095345842],[-82.366264286621671,28.551978263079345],[-82.367098950473192,28.551967319663547],[-82.367090178620288,28.550990091156553],[-82.367121327654274,28.55099006124934],[-82.367107178856912,28.549413618730689],[-82.366920392010414,28.549414057721293],[-82.36673350172228,28.54941449705936],[-82.366546612388689,28.549414940662029],[-82.366372181386581,28.549415349952746],[-82.366359722111099,28.549415378601537],[-82.366172831899817,28.549415811790123],[-82.365985942480265,28.549416260047874],[-82.365799052184556,28.549416698140497],[-82.365612169054586,28.549417136067639],[-82.365425279711857,28.549417578175944],[-82.365238388469209,28.549418010107246],[-82.365051499123453,28.549418451717408],[-82.364864603619282,28.549418893907223],[-82.364676155650685,28.549419333952258],[-82.364350662656634,28.549420096965779],[-82.364257215959711,28.549420315385863],[-82.363945739968344,28.549421041053378],[-82.363852295263257,28.549421262828989],[-82.363696553149467,28.549421626602278],[-82.363540811061753,28.549421988401924],[-82.363494089267959,28.549422096017249],[-82.363447366422989,28.549422205405783],[-82.363291631419301,28.54942257241456],[-82.363064460925159,28.5494231004322],[-82.362959839162954,28.549423344224319],[-82.362679505156919,28.54942399929006],[-82.362399169167702,28.549424649269632],[-82.362212279867052,28.549425082594066],[-82.362073046299415,28.549425409546817],[-82.361223712205842,28.549427380233784],[-82.360771648729511,28.549428427909614],[-82.360580375187908,28.54942887084405],[-82.360574151657929,28.549428887234033],[-82.360567928127992,28.54942890362376],[-82.36056169845466,28.549428919941356],[-82.360555468781342,28.549428936258678],[-82.360549232951072,28.549428953404277],[-82.360543009502763,28.549428964390653],[-82.360536785972769,28.549428980778963],[-82.360530556299466,28.549428997095227],[-82.360524326789502,28.549429002606772],[-82.36051809710257,28.549429019822789],[-82.360511861381184,28.549429029763775],[-82.36050563785119,28.549429046150717],[-82.360499408177844,28.549429062465567],[-82.360493183692043,28.549429074338139],[-82.360486611029003,28.549429085741625],[-82.358452868017181,28.549433777713773],[-82.357510513199642,28.54939915520778],[-82.35431398205651,28.549281679095714],[-82.354361489908939,28.553550487950936],[-82.354557681976672,28.55378823257146],[-82.354733629747329,28.553966748449074],[-82.354833920339672,28.554044770819736],[-82.354964294191106,28.554128145763965],[-82.355079369193874,28.554187945388183],[-82.355225395680733,28.554247645983036],[-82.355351853771751,28.554287207131129],[-82.355502209420095,28.554320510577277],[-82.361031510952486,28.555248229792035]]]},"properties":{"OBJECTID":1,"PARCELNO":"R24 422 19 0000 0040 0000","OID_":110987,"CO_NO":37,"PARCEL_ID":"R24 422 19 0000 0040 0000","FILE_T":"R","ASMNT_YR":2025,"BAS_STRT":"03","ATV_STRT":"8","GRP_NO":"1","DOR_UC":"054","PA_UC":" ","SPASS_CD":" ","JV":4737352,"JV_CHNG":0,"JV_CHNG_CD":0,"AV_SD":28323,"AV_NSD":28323,"TV_SD":28323,"TV_NSD":28323,"JV_HMSTD":0,"AV_HMSTD":0,"JV_NON_HMS":0,"AV_NON_HMS":0,"JV_RESD_NO":0,"AV_RESD_NO":0,"JV_CLASS_U":4737352,"AV_CLASS_U":28323,"JV_H2O_REC":0,"AV_H2O_REC":0,"JV_CONSRV_":0,"AV_CONSRV_":0,"JV_HIST_CO":0,"AV_HIST_CO":0,"JV_HIST_SI":0,"AV_HIST_SI":0,"JV_WRKNG_W":0,"AV_WRKNG_W":0,"NCONST_VAL":0,"DEL_VAL":0,"PAR_SPLT":0,"DISTR_CD":0,"DISTR_YR":0,"LND_VAL":28323,"LND_UNTS_C":1,"NO_LND_UNT":17070,"LND_SQFOOT":7435692,"DT_LAST_IN":124,"IMP_QUAL":" ","CONST_CLAS":0,"EFF_YR_BLT":0,"ACT_YR_BLT":0,"TOT_LVG_AR":0,"NO_BULDNG":0,"NO_RES_UNT":0,"SPEC_FEAT_":0,"M_PAR_SAL1":" ","QUAL_CD1":" ","VI_CD1":" ","SALE_PRC1":0,"SALE_YR1":0,"SALE_MO1":" ","OR_BOOK1":" ","OR_PAGE1":" ","CLERK_NO1":" ","S_CHNG_CD1":0,"M_PAR_SAL2":" ","QUAL_CD2":" ","VI_CD2":" ","SALE_PRC2":0,"SALE_YR2":0,"SALE_MO2":" ","OR_BOOK2":" ","OR_PAGE2":" ","CLERK_NO2":" ","S_CHNG_CD2":0,"OWN_NAME":"EVANS FINANCIAL SERVICES LTD","OWN_ADDR1":"3195 SE GRAN PARK WAY","OWN_ADDR2":" ","OWN_CITY":"STUART","OWN_STATE":"FLORIDA","OWN_ZIPCD":34997,"OWN_STATE_":"FL","FIDU_NAME":" ","FIDU_ADDR1":" ","FIDU_ADDR2":" ","FIDU_CITY":" ","FIDU_STATE":" ","FIDU_ZIPCD":" ","FIDU_CD":0,"S_LEGAL":"182.4 AC MOL IN S1/2 LYING S","APP_STAT":" ","CO_APP_STA":" ","MKT_AR":"09","NBRHD_CD":" ","PUBLIC_LND":" ","TAX_AUTH_C":"CWBE","TWN":"22S","RNG":"19E","SEC":"24","CENSUS_BK":"120530402022","PHY_ADDR1":"MONDON HILL RD","PHY_ADDR2":" ","PHY_CITY":"BROOKSVILLE","PHY_ZIPCD":34601,"ALT_KEY":"00356162","ASS_TRNSFR":" ","PREV_HMSTD":0,"ASS_DIF_TR":0,"CONO_PRV_H":0,"PARCEL_ID_":" ","YR_VAL_TRN":0,"SEQ_NO":112097,"RS_ID":"2B19","MP_ID":"0037B9E8","STATE_PAR_":"C37-000-365-2072-4","SPC_CIR_CD":0,"SPC_CIR_YR":0,"SPC_CIR_TX":" ","Shape_Length":3599.1927524713947,"Shape_Area":690946.67140073609}}]}