{"type":"FeatureCollection","features":[{"type":"Feature","id":1,"geometry":{"type":"Polygon","coordinates":[[[-82.340673422679018,28.827439520152939],[-82.340672171955021,28.827816972426405],[-82.340669221942875,28.828707317801253],[-82.340680661758867,28.82870730964034],[-82.340680827071964,28.828707308889882],[-82.344065294343707,28.828704884335021],[-82.34469633837206,28.828704423626121],[-82.344749007519724,28.828704384572159],[-82.344750884512123,28.827969908349651],[-82.344751868929478,28.827584909975243],[-82.344752045863672,28.827516123712389],[-82.344753205138701,28.827062339984895],[-82.344755174870372,28.826292282146945],[-82.344756476290428,28.825783321110269],[-82.344758321208474,28.82506186964892],[-82.344758334165121,28.825057266142572],[-82.344762996253024,28.823233705924586],[-82.344767661207996,28.821410149881793],[-82.342980965815457,28.821409606784904],[-82.342730531532325,28.821409529094865],[-82.342730529096272,28.821410090114355],[-82.342719822959069,28.825057698706328],[-82.340729955148845,28.825058089610572],[-82.340681311792565,28.825058098109597],[-82.340681243792261,28.825078458060258],[-82.340679870550034,28.825493211726677],[-82.340679737255769,28.825533755153145],[-82.340679036962129,28.825745034412552],[-82.340676271331048,28.82657946770011],[-82.340684226277858,28.826579461634495],[-82.341858620902414,28.826578633282125],[-82.341855717527991,28.826991158085612],[-82.34068131533104,28.826991987277822],[-82.340674904537437,28.826991991757765],[-82.340674489007228,28.827117451964607],[-82.340674314994629,28.827170018297309],[-82.340673583340063,28.827390701791025],[-82.340673422679018,28.827439520152939]],[[-82.34067507946925,28.82740454034489],[-82.34184948511907,28.827403711192634],[-82.341846581701475,28.82781623515093],[-82.340672171955021,28.827816972426405],[-82.34067507946925,28.82740454034489]]]},"properties":{"OBJECTID":1,"PARCELNO":"20E19S19      13300","OID_":131216,"CO_NO":19,"PARCEL_ID":"20E19S19      13300","FILE_T":"R","ASMNT_YR":2025,"BAS_STRT":"03","ATV_STRT":"8","GRP_NO":"1","DOR_UC":"057","PA_UC":"00","SPASS_CD":" ","JV":523610,"JV_CHNG":0,"JV_CHNG_CD":0,"AV_SD":7700,"AV_NSD":7700,"TV_SD":7700,"TV_NSD":7700,"JV_HMSTD":0,"AV_HMSTD":0,"JV_NON_HMS":0,"AV_NON_HMS":0,"JV_RESD_NO":0,"AV_RESD_NO":0,"JV_CLASS_U":523610,"AV_CLASS_U":7700,"JV_H2O_REC":0,"AV_H2O_REC":0,"JV_CONSRV_":0,"AV_CONSRV_":0,"JV_HIST_CO":0,"AV_HIST_CO":0,"JV_HIST_SI":0,"AV_HIST_SI":0,"JV_WRKNG_W":0,"AV_WRKNG_W":0,"NCONST_VAL":0,"DEL_VAL":0,"PAR_SPLT":0,"DISTR_CD":0,"DISTR_YR":0,"LND_VAL":7700,"LND_UNTS_C":1,"NO_LND_UNT":5704,"LND_SQFOOT":2484578,"DT_LAST_IN":220,"IMP_QUAL":" ","CONST_CLAS":0,"EFF_YR_BLT":0,"ACT_YR_BLT":0,"TOT_LVG_AR":0,"NO_BULDNG":0,"NO_RES_UNT":0,"SPEC_FEAT_":0,"M_PAR_SAL1":" ","QUAL_CD1":" ","VI_CD1":" ","SALE_PRC1":0,"SALE_YR1":0,"SALE_MO1":" ","OR_BOOK1":" ","OR_PAGE1":" ","CLERK_NO1":" ","S_CHNG_CD1":0,"M_PAR_SAL2":" ","QUAL_CD2":" ","VI_CD2":" ","SALE_PRC2":0,"SALE_YR2":0,"SALE_MO2":" ","OR_BOOK2":" ","OR_PAGE2":" ","CLERK_NO2":" ","S_CHNG_CD2":0,"OWN_NAME":"WHITCRAFT NICHOLAS R","OWN_ADDR1":"4056 STILLWOOD DR","OWN_ADDR2":" ","OWN_CITY":"JACKSONVILLE","OWN_STATE":"FL","OWN_ZIPCD":32257,"OWN_STATE_":" ","FIDU_NAME":" ","FIDU_ADDR1":" ","FIDU_ADDR2":" ","FIDU_CITY":" ","FIDU_STATE":" ","FIDU_ZIPCD":" ","FIDU_CD":0,"S_LEGAL":"W1/2 OF NE1/4 SEC 19-19-20 LES","APP_STAT":" ","CO_APP_STA":" ","MKT_AR":"92","NBRHD_CD":"4730","PUBLIC_LND":" ","TAX_AUTH_C":"000T","TWN":"19S","RNG":"20E","SEC":"19","CENSUS_BK":"120174514001","PHY_ADDR1":"448 S LINE AVE","PHY_ADDR2":" ","PHY_CITY":"INVERNESS","PHY_ZIPCD":34452,"ALT_KEY":"3525137","ASS_TRNSFR":" ","PREV_HMSTD":0,"ASS_DIF_TR":0,"CONO_PRV_H":0,"PARCEL_ID_":" ","YR_VAL_TRN":0,"SEQ_NO":131696,"RS_ID":"2B34","MP_ID":"00184410","STATE_PAR_":"C19-000-159-0288-5","SPC_CIR_CD":0,"SPC_CIR_YR":0,"SPC_CIR_TX":" ","Shape_Length":2965.447708038279,"Shape_Area":230846.54456847764}},{"type":"Feature","id":2,"geometry":{"type":"Polygon","coordinates":[[[-82.344782220575922,28.805472649533993],[-82.344788953676684,28.806050190861644],[-82.344789893198865,28.806130880084005],[-82.344795964759442,28.806651633584664],[-82.344800233311858,28.807017848379985],[-82.344804502947028,28.80738406140755],[-82.344809792164753,28.807837878216208],[-82.344813317170477,28.808140387037337],[-82.344817726567086,28.808518537754509],[-82.344822136035845,28.80889668579286],[-82.344830950919075,28.809652984589409],[-82.344837557185627,28.81052391550141],[-82.352798629856736,28.810496406770014],[-82.352807628705975,28.8067736213827],[-82.35272957152705,28.806773179371735],[-82.35084216367278,28.80676251049081],[-82.348876692899637,28.806751371143179],[-82.348869395556392,28.804927909674859],[-82.348865593101493,28.803978308954424],[-82.348862981864158,28.803325805795264],[-82.348858434604821,28.80218962485419],[-82.34885463818992,28.801240582950623],[-82.348850838735316,28.800291542951111],[-82.348847262205922,28.799397508017947],[-82.348847235988003,28.799391222735178],[-82.348722266945501,28.799390020164541],[-82.348722282728403,28.799396114407095],[-82.348451875437476,28.799393100970619],[-82.348119014883665,28.799389389004009],[-82.347692170076783,28.799384630785354],[-82.347265321229926,28.799379869421291],[-82.346838475485683,28.799375107697543],[-82.3464116267278,28.799370342840511],[-82.345984781044962,28.799365579424531],[-82.345557936481015,28.799360811122813],[-82.345131087794613,28.799356045077996],[-82.344704242265905,28.799351275071977],[-82.344701871414159,28.799560698373035],[-82.344722193388392,28.800322822233333],[-82.344730767160456,28.801058493572189],[-82.344735054382937,28.801426343685208],[-82.344739341593211,28.801794196520181],[-82.344743630940343,28.802162045798635],[-82.344747918277804,28.802529894173354],[-82.344756495382143,28.803265572101388],[-82.344760777469702,28.803632763069899],[-82.344765070178568,28.804001274399461],[-82.344769412519682,28.804373923489806],[-82.344771500553477,28.804553036309407],[-82.344771529563218,28.804555433931959],[-82.344773647626411,28.804736945291658],[-82.344782220575922,28.805472649533993]]]},"properties":{"OBJECTID":2,"PARCELNO":"20E19S30      31000","OID_":139150,"CO_NO":19,"PARCEL_ID":"20E19S30      31000","FILE_T":"R","ASMNT_YR":2025,"BAS_STRT":"03","ATV_STRT":"8","GRP_NO":"1","DOR_UC":"056","PA_UC":"00","SPASS_CD":" ","JV":1257410,"JV_CHNG":0,"JV_CHNG_CD":0,"AV_SD":24889,"AV_NSD":24889,"TV_SD":24889,"TV_NSD":24889,"JV_HMSTD":0,"AV_HMSTD":0,"JV_NON_HMS":0,"AV_NON_HMS":0,"JV_RESD_NO":0,"AV_RESD_NO":0,"JV_CLASS_U":1257410,"AV_CLASS_U":24889,"JV_H2O_REC":0,"AV_H2O_REC":0,"JV_CONSRV_":0,"AV_CONSRV_":0,"JV_HIST_CO":0,"AV_HIST_CO":0,"JV_HIST_SI":0,"AV_HIST_SI":0,"JV_WRKNG_W":0,"AV_WRKNG_W":0,"NCONST_VAL":0,"DEL_VAL":0,"PAR_SPLT":0,"DISTR_CD":0,"DISTR_YR":0,"LND_VAL":24889,"LND_UNTS_C":1,"NO_LND_UNT":16114,"LND_SQFOOT":7019414,"DT_LAST_IN":1219,"IMP_QUAL":" ","CONST_CLAS":0,"EFF_YR_BLT":0,"ACT_YR_BLT":0,"TOT_LVG_AR":0,"NO_BULDNG":0,"NO_RES_UNT":0,"SPEC_FEAT_":0,"M_PAR_SAL1":" ","QUAL_CD1":" ","VI_CD1":" ","SALE_PRC1":0,"SALE_YR1":0,"SALE_MO1":" ","OR_BOOK1":" ","OR_PAGE1":" ","CLERK_NO1":" ","S_CHNG_CD1":0,"M_PAR_SAL2":" ","QUAL_CD2":" ","VI_CD2":" ","SALE_PRC2":0,"SALE_YR2":0,"SALE_MO2":" ","OR_BOOK2":" ","OR_PAGE2":" ","CLERK_NO2":" ","S_CHNG_CD2":0,"OWN_NAME":"LARKIN MARION R","OWN_ADDR1":"1579 STRAITS TURNPIKE SUITE 1B","OWN_ADDR2":" ","OWN_CITY":"MIDDLEBURY","OWN_STATE":"CT","OWN_ZIPCD":6762,"OWN_STATE_":" ","FIDU_NAME":" ","FIDU_ADDR1":" ","FIDU_ADDR2":" ","FIDU_CITY":" ","FIDU_STATE":" ","FIDU_ZIPCD":" ","FIDU_CD":0,"S_LEGAL":"E1/2 OF SW1/4","APP_STAT":" ","CO_APP_STA":" ","MKT_AR":"92","NBRHD_CD":"8710","PUBLIC_LND":" ","TAX_AUTH_C":"000X","TWN":"19S","RNG":"20E","SEC":"30","CENSUS_BK":"120174514001","PHY_ADDR1":"3701 S PLEASANT GROVE RD","PHY_ADDR2":" ","PHY_CITY":"INVERNESS","PHY_ZIPCD":34452,"ALT_KEY":"1828848","ASS_TRNSFR":" ","PREV_HMSTD":0,"ASS_DIF_TR":0,"CONO_PRV_H":0,"PARCEL_ID_":" ","YR_VAL_TRN":0,"SEQ_NO":139702,"RS_ID":"2B34","MP_ID":"001863DA","STATE_PAR_":"C19-000-159-8426-3","SPC_CIR_CD":0,"SPC_CIR_YR":0,"SPC_CIR_TX":" ","Shape_Length":4034.5797059166766,"Shape_Area":652185.52616973512}},{"type":"Feature","id":3,"geometry":{"type":"Polygon","coordinates":[[[-82.349724382750892,28.810507085708871],[-82.349337947503244,28.810508423306963],[-82.344837557185627,28.81052391550141],[-82.344823940984455,28.811364420818911],[-82.344809650625237,28.8122464213989],[-82.344792627487593,28.813297003112545],[-82.344779709296191,28.814094598244793],[-82.344779066787879,28.814134238630917],[-82.344779064748764,28.814134371889441],[-82.344784261003596,28.814134390752724],[-82.344786269905015,28.814134398198849],[-82.344808614699332,28.814134380347795],[-82.351642852815033,28.814129085593656],[-82.352037887015868,28.81412876899504],[-82.352776772672271,28.814128173872586],[-82.352789761117378,28.814128162179717],[-82.352789850427456,28.814128162325773],[-82.352789887480256,28.814112718209337],[-82.352798629856736,28.810496406770014],[-82.349724382750892,28.810507085708871]]]},"properties":{"OBJECTID":3,"PARCELNO":"20E19S30      41000","OID_":139156,"CO_NO":19,"PARCEL_ID":"20E19S30      41000","FILE_T":"R","ASMNT_YR":2025,"BAS_STRT":"03","ATV_STRT":"8","GRP_NO":"1","DOR_UC":"055","PA_UC":"00","SPASS_CD":" ","JV":638660,"JV_CHNG":0,"JV_CHNG_CD":0,"AV_SD":18539,"AV_NSD":18539,"TV_SD":18539,"TV_NSD":18539,"JV_HMSTD":0,"AV_HMSTD":0,"JV_NON_HMS":0,"AV_NON_HMS":0,"JV_RESD_NO":0,"AV_RESD_NO":0,"JV_CLASS_U":638660,"AV_CLASS_U":18539,"JV_H2O_REC":0,"AV_H2O_REC":0,"JV_CONSRV_":0,"AV_CONSRV_":0,"JV_HIST_CO":0,"AV_HIST_CO":0,"JV_HIST_SI":0,"AV_HIST_SI":0,"JV_WRKNG_W":0,"AV_WRKNG_W":0,"NCONST_VAL":0,"DEL_VAL":0,"PAR_SPLT":0,"DISTR_CD":0,"DISTR_YR":0,"LND_VAL":18539,"LND_UNTS_C":1,"NO_LND_UNT":7730,"LND_SQFOOT":3367220,"DT_LAST_IN":1219,"IMP_QUAL":" ","CONST_CLAS":0,"EFF_YR_BLT":0,"ACT_YR_BLT":0,"TOT_LVG_AR":0,"NO_BULDNG":0,"NO_RES_UNT":0,"SPEC_FEAT_":0,"M_PAR_SAL1":" ","QUAL_CD1":" ","VI_CD1":" ","SALE_PRC1":0,"SALE_YR1":0,"SALE_MO1":" ","OR_BOOK1":" ","OR_PAGE1":" ","CLERK_NO1":" ","S_CHNG_CD1":0,"M_PAR_SAL2":" ","QUAL_CD2":" ","VI_CD2":" ","SALE_PRC2":0,"SALE_YR2":0,"SALE_MO2":" ","OR_BOOK2":" ","OR_PAGE2":" ","CLERK_NO2":" ","S_CHNG_CD2":0,"OWN_NAME":"LARKIN MARIAN R","OWN_ADDR1":"1579 STRAITS TURNPIKE SUITE 1B","OWN_ADDR2":" ","OWN_CITY":"MIDDLEBURY","OWN_STATE":"CT","OWN_ZIPCD":6762,"OWN_STATE_":" ","FIDU_NAME":" ","FIDU_ADDR1":" ","FIDU_ADDR2":" ","FIDU_CITY":" ","FIDU_STATE":" ","FIDU_ZIPCD":" ","FIDU_CD":0,"S_LEGAL":"N1/2 OF NW1/4 OF SEC 30 T19S R","APP_STAT":" ","CO_APP_STA":" ","MKT_AR":"92","NBRHD_CD":"8710","PUBLIC_LND":" ","TAX_AUTH_C":"000X","TWN":"19S","RNG":"20E","SEC":"30","CENSUS_BK":"120174514001","PHY_ADDR1":"3555 S PLEASANT GROVE RD","PHY_ADDR2":" ","PHY_CITY":"INVERNESS","PHY_ZIPCD":34452,"ALT_KEY":"1828881","ASS_TRNSFR":" ","PREV_HMSTD":0,"ASS_DIF_TR":0,"CONO_PRV_H":0,"PARCEL_ID_":" ","YR_VAL_TRN":0,"SEQ_NO":139708,"RS_ID":"2B34","MP_ID":"001863E2","STATE_PAR_":"C19-000-159-8434-7","SPC_CIR_CD":0,"SPC_CIR_YR":0,"SPC_CIR_TX":" ","Shape_Length":2360.3116458846434,"Shape_Area":312854.03077907185}},{"type":"Feature","id":4,"geometry":{"type":"Polygon","coordinates":[[[-82.344767671269835,28.821406138011152],[-82.344767661207996,28.821410149881793],[-82.344780642096154,28.821410153238588],[-82.344830119132212,28.82141016756562],[-82.344843103085964,28.821410171853312],[-82.345484460656124,28.821410359073159],[-82.346148877683589,28.821410549002913],[-82.346804691339557,28.821410739977892],[-82.346960836644399,28.821410783229524],[-82.350882080094053,28.821411829241228],[-82.35088218774429,28.821356825314602],[-82.35088285106751,28.82101703991987],[-82.350883349387331,28.820761271069625],[-82.35088383384111,28.820513751178463],[-82.350884301308469,28.820274482910516],[-82.350884741872207,28.820048964955145],[-82.350885171448994,28.819828948387229],[-82.350886175117083,28.819314658772907],[-82.350886691431398,28.819050638392859],[-82.350887417034386,28.818679360450513],[-82.350949872970958,28.818679402427346],[-82.351444573209577,28.818679735056989],[-82.351811567145631,28.818679980697333],[-82.352191490226204,28.818680233753248],[-82.352749008797886,28.818680603835624],[-82.352753686031932,28.81868060731404],[-82.352769211475859,28.818680617241395],[-82.352773334241988,28.816198128776428],[-82.352773820322525,28.815905993727288],[-82.352774873413452,28.815271511357711],[-82.352776772672271,28.814128173872586],[-82.352037887015868,28.81412876899504],[-82.351642852815033,28.814129085593656],[-82.344808614699332,28.814134380347795],[-82.344786269905015,28.814134398198849],[-82.344777021057439,28.817750385114898],[-82.344776964309119,28.817772274314777],[-82.344767671269835,28.821406138011152]]]},"properties":{"OBJECTID":4,"PARCELNO":"20E19S19      30000","OID_":131240,"CO_NO":19,"PARCEL_ID":"20E19S19      30000","FILE_T":"R","ASMNT_YR":2025,"BAS_STRT":"03","ATV_STRT":"8","GRP_NO":"1","DOR_UC":"057","PA_UC":"00","SPASS_CD":" ","JV":1236710,"JV_CHNG":0,"JV_CHNG_CD":0,"AV_SD":19009,"AV_NSD":19009,"TV_SD":19009,"TV_NSD":19009,"JV_HMSTD":0,"AV_HMSTD":0,"JV_NON_HMS":0,"AV_NON_HMS":0,"JV_RESD_NO":0,"AV_RESD_NO":0,"JV_CLASS_U":1236710,"AV_CLASS_U":19009,"JV_H2O_REC":0,"AV_H2O_REC":0,"JV_CONSRV_":0,"AV_CONSRV_":0,"JV_HIST_CO":0,"AV_HIST_CO":0,"JV_HIST_SI":0,"AV_HIST_SI":0,"JV_WRKNG_W":0,"AV_WRKNG_W":0,"NCONST_VAL":0,"DEL_VAL":0,"PAR_SPLT":0,"DISTR_CD":0,"DISTR_YR":0,"LND_VAL":19009,"LND_UNTS_C":1,"NO_LND_UNT":14181,"LND_SQFOOT":6177167,"DT_LAST_IN":1219,"IMP_QUAL":" ","CONST_CLAS":0,"EFF_YR_BLT":0,"ACT_YR_BLT":0,"TOT_LVG_AR":0,"NO_BULDNG":0,"NO_RES_UNT":0,"SPEC_FEAT_":0,"M_PAR_SAL1":" ","QUAL_CD1":" ","VI_CD1":" ","SALE_PRC1":0,"SALE_YR1":0,"SALE_MO1":" ","OR_BOOK1":" ","OR_PAGE1":" ","CLERK_NO1":" ","S_CHNG_CD1":0,"M_PAR_SAL2":" ","QUAL_CD2":" ","VI_CD2":" ","SALE_PRC2":0,"SALE_YR2":0,"SALE_MO2":" ","OR_BOOK2":" ","OR_PAGE2":" ","CLERK_NO2":" ","S_CHNG_CD2":0,"OWN_NAME":"LARKIN MARIAN R","OWN_ADDR1":"1579 STRAITS TURNPIKE SUITE 1B","OWN_ADDR2":" ","OWN_CITY":"MIDDLEBURY","OWN_STATE":"CT","OWN_ZIPCD":6762,"OWN_STATE_":" ","FIDU_NAME":" ","FIDU_ADDR1":" ","FIDU_ADDR2":" ","FIDU_CITY":" ","FIDU_STATE":" ","FIDU_ZIPCD":" ","FIDU_CD":0,"S_LEGAL":"SW1/4","APP_STAT":" ","CO_APP_STA":" ","MKT_AR":"92","NBRHD_CD":"8710","PUBLIC_LND":" ","TAX_AUTH_C":"000X","TWN":"19S","RNG":"20E","SEC":"19","CENSUS_BK":"120174514001","PHY_ADDR1":"3150 S PLEASANT GROVE RD","PHY_ADDR2":" ","PHY_CITY":"INVERNESS","PHY_ZIPCD":34452,"ALT_KEY":"1763061","ASS_TRNSFR":" ","PREV_HMSTD":0,"ASS_DIF_TR":0,"CONO_PRV_H":0,"PARCEL_ID_":" ","YR_VAL_TRN":0,"SEQ_NO":131720,"RS_ID":"2B34","MP_ID":"00184424","STATE_PAR_":"C19-000-159-0308-1","SPC_CIR_CD":0,"SPC_CIR_YR":0,"SPC_CIR_TX":" ","Shape_Length":3174.3708160033839,"Shape_Area":573931.10078845359}}]}